{
  "type": "FeatureCollection",
  "metadata": {
    "initialization_time_utc": "2026-07-30T00:00:00+00:00",
    "lead_time_hrs": 24,
    "threshold": 0.75,
    "source_product": "NCEP FNL native 1-degree analysis",
    "training_domain_note": "Model input uses native NCEP FNL fields. Post-classification uses the validated learned XAI/environment classifier when available, with active-system and deterministic environmental fallback logic. Classification scores are model outputs, not official warning probabilities.",
    "channel_schema": [
      "ugrdprs_1000",
      "ugrdprs_975",
      "ugrdprs_950",
      "ugrdprs_925",
      "ugrdprs_900",
      "ugrdprs_850",
      "ugrdprs_800",
      "ugrdprs_750",
      "ugrdprs_700",
      "ugrdprs_650",
      "ugrdprs_600",
      "ugrdprs_550",
      "ugrdprs_500",
      "ugrdprs_450",
      "ugrdprs_400",
      "ugrdprs_350",
      "ugrdprs_300",
      "ugrdprs_250",
      "ugrdprs_200",
      "vgrdprs_1000",
      "vgrdprs_975",
      "vgrdprs_950",
      "vgrdprs_925",
      "vgrdprs_900",
      "vgrdprs_850",
      "vgrdprs_800",
      "vgrdprs_750",
      "vgrdprs_700",
      "vgrdprs_650",
      "vgrdprs_600",
      "vgrdprs_550",
      "vgrdprs_500",
      "vgrdprs_450",
      "vgrdprs_400",
      "vgrdprs_350",
      "vgrdprs_300",
      "vgrdprs_250",
      "vgrdprs_200",
      "vvelprs_1000",
      "vvelprs_975",
      "vvelprs_950",
      "vvelprs_925",
      "vvelprs_900",
      "vvelprs_850",
      "vvelprs_800",
      "vvelprs_750",
      "vvelprs_700",
      "vvelprs_650",
      "vvelprs_600",
      "vvelprs_550",
      "vvelprs_500",
      "vvelprs_450",
      "vvelprs_400",
      "vvelprs_350",
      "vvelprs_300",
      "vvelprs_250",
      "vvelprs_200",
      "tmpprs_1000",
      "tmpprs_975",
      "tmpprs_950",
      "tmpprs_925",
      "tmpprs_900",
      "tmpprs_850",
      "tmpprs_800",
      "tmpprs_750",
      "tmpprs_700",
      "tmpprs_650",
      "tmpprs_600",
      "tmpprs_550",
      "tmpprs_500",
      "tmpprs_450",
      "tmpprs_400",
      "tmpprs_350",
      "tmpprs_300",
      "tmpprs_250",
      "tmpprs_200",
      "rhprs_1000",
      "rhprs_975",
      "rhprs_950",
      "rhprs_925",
      "rhprs_900",
      "rhprs_850",
      "rhprs_800",
      "rhprs_750",
      "rhprs_700",
      "rhprs_650",
      "rhprs_600",
      "rhprs_550",
      "rhprs_500",
      "rhprs_450",
      "rhprs_400",
      "rhprs_350",
      "rhprs_300",
      "rhprs_250",
      "rhprs_200",
      "hgtprs_1000",
      "hgtprs_975",
      "hgtprs_950",
      "hgtprs_925",
      "hgtprs_900",
      "hgtprs_850",
      "hgtprs_800",
      "hgtprs_750",
      "hgtprs_700",
      "hgtprs_650",
      "hgtprs_600",
      "hgtprs_550",
      "hgtprs_500",
      "hgtprs_450",
      "hgtprs_400",
      "hgtprs_350",
      "hgtprs_300",
      "hgtprs_250",
      "hgtprs_200",
      "absvprs_1000",
      "absvprs_975",
      "absvprs_950",
      "absvprs_925",
      "absvprs_900",
      "absvprs_850",
      "absvprs_800",
      "absvprs_750",
      "absvprs_700",
      "absvprs_650",
      "absvprs_600",
      "absvprs_550",
      "absvprs_500",
      "absvprs_450",
      "absvprs_400",
      "absvprs_350",
      "absvprs_300",
      "absvprs_250",
      "absvprs_200",
      "pressfc",
      "capesfc",
      "tmpsfc",
      "landmask"
    ]
  },
  "features": [
    {
      "type": "Feature",
      "geometry": {
        "type": "Point",
        "coordinates": [
          -155.0,
          6.0
        ]
      },
      "properties": {
        "confidence": 0.9976098537445068,
        "confidence_percent": 99.76,
        "raw_model_score": 0.9976098537445068,
        "raw_model_score_percent": 99.76,
        "lead_time_hrs": 24,
        "validation_threshold": 0.75,
        "top_driver": "pressfc",
        "xai_method": "mean_absolute_input_gradient",
        "source_product": "NCEP FNL native 1-degree analysis",
        "initialization_time_utc": "2026-07-30T00:00:00+00:00",
        "system_class": "HIGH_PRIORITY_MODEL_GENESIS_CANDIDATE",
        "classification_confidence": 0.5412273063399724,
        "classification_confidence_percent": 54.12,
        "classification_reason": "Validated learned XAI/environment classifier produced 54.1%, above the high-priority threshold 40.0%; no official track match is currently available.",
        "land_fraction": 0.0,
        "pressure_anomaly_pa": -70.3046875,
        "midlevel_rh_percent": 97.10000101725261,
        "shear_200_850_ms": 6.28369854174104,
        "vorticity_850_s1": 6.749853491783142e-05,
        "surface_temperature_k": 302.0293884277344,
        "cnn_confidence": 0.9693403244018555,
        "vit_confidence": 0.9818236231803894,
        "xai_mean_ugrdprs": 0.09197665089133912,
        "xai_mean_vgrdprs": 0.0895741174374099,
        "xai_mean_vvelprs": 0.08494282485412148,
        "xai_mean_tmpprs": 0.08695898137066935,
        "xai_mean_rhprs": 0.0893505663242162,
        "xai_mean_hgtprs": 0.08654425456930022,
        "xai_mean_absvprs": 0.08901525674810308,
        "xai_mean_pressfc": 0.10829603599757526,
        "xai_mean_capesfc": 0.08317802231707788,
        "xai_mean_tmpsfc": 0.09523914161534824,
        "xai_mean_landmask": 0.09492414787483924,
        "xai_column_total_ugrdprs": 0.1440626843679614,
        "xai_column_total_vgrdprs": 0.14029960101210318,
        "xai_column_total_vvelprs": 0.1330456248273863,
        "xai_column_total_tmpprs": 0.1362035309597648,
        "xai_column_total_rhprs": 0.13994945656113586,
        "xai_column_total_hgtprs": 0.13555393747302655,
        "xai_column_total_absvprs": 0.13942426243101136,
        "xai_column_total_pressfc": 0.008927561819922427,
        "xai_column_total_capesfc": 0.006856917055682687,
        "xai_column_total_tmpsfc": 0.007851195259505206,
        "xai_column_total_landmask": 0.007825228232500214
      }
    },
    {
      "type": "Feature",
      "geometry": {
        "type": "Point",
        "coordinates": [
          97.0,
          17.0
        ]
      },
      "properties": {
        "confidence": 0.9967449903488159,
        "confidence_percent": 99.67,
        "raw_model_score": 0.9967449903488159,
        "raw_model_score_percent": 99.67,
        "lead_time_hrs": 24,
        "validation_threshold": 0.75,
        "top_driver": "pressfc",
        "xai_method": "mean_absolute_input_gradient",
        "source_product": "NCEP FNL native 1-degree analysis",
        "initialization_time_utc": "2026-07-30T00:00:00+00:00",
        "system_class": "MONSOON_OR_LAND_LOW",
        "classification_confidence": 0.72,
        "classification_confidence_percent": 72.0,
        "classification_reason": "Strong moist circulation with substantial land/coastal influence and no qualifying active/invest match.",
        "land_fraction": 0.5532879829406738,
        "pressure_anomaly_pa": 3840.3671875,
        "midlevel_rh_percent": 97.46666463216145,
        "shear_200_850_ms": 21.31416689329593,
        "vorticity_850_s1": 8.498534953105263e-06,
        "surface_temperature_k": 301.12939453125,
        "cnn_confidence": 0.9712125062942505,
        "vit_confidence": 0.9701160192489624,
        "xai_mean_ugrdprs": 0.08722600346792676,
        "xai_mean_vgrdprs": 0.08212636359097872,
        "xai_mean_vvelprs": 0.07881967540099676,
        "xai_mean_tmpprs": 0.07953999302602403,
        "xai_mean_rhprs": 0.0866291263318306,
        "xai_mean_hgtprs": 0.07718881888143324,
        "xai_mean_absvprs": 0.08252054484101962,
        "xai_mean_pressfc": 0.14029988329497237,
        "xai_mean_capesfc": 0.0804337244538669,
        "xai_mean_tmpsfc": 0.09743947101904153,
        "xai_mean_landmask": 0.10777639569190947,
        "xai_column_total_ugrdprs": 0.1462372950008443,
        "xai_column_total_vgrdprs": 0.13768758320550384,
        "xai_column_total_vvelprs": 0.1321438087925362,
        "xai_column_total_tmpprs": 0.13335144382769654,
        "xai_column_total_rhprs": 0.1452366230664362,
        "xai_column_total_hgtprs": 0.12940962275565104,
        "xai_column_total_absvprs": 0.13834843973956182,
        "xai_column_total_pressfc": 0.012379864727005871,
        "xai_column_total_capesfc": 0.007097358920353567,
        "xai_column_total_tmpsfc": 0.00859792212193501,
        "xai_column_total_landmask": 0.009510037842475602
      }
    },
    {
      "type": "Feature",
      "geometry": {
        "type": "Point",
        "coordinates": [
          114.0,
          16.0
        ]
      },
      "properties": {
        "confidence": 0.99178546667099,
        "confidence_percent": 99.18,
        "raw_model_score": 0.99178546667099,
        "raw_model_score_percent": 99.18,
        "lead_time_hrs": 24,
        "validation_threshold": 0.75,
        "top_driver": "pressfc",
        "xai_method": "mean_absolute_input_gradient",
        "source_product": "NCEP FNL native 1-degree analysis",
        "initialization_time_utc": "2026-07-30T00:00:00+00:00",
        "system_class": "MONSOON_OR_LAND_LOW",
        "classification_confidence": 0.72,
        "classification_confidence_percent": 72.0,
        "classification_reason": "Strong moist circulation with substantial land/coastal influence and no qualifying active/invest match.",
        "land_fraction": 0.32879817485809326,
        "pressure_anomaly_pa": 1531.9765625,
        "midlevel_rh_percent": 69.26666768391927,
        "shear_200_850_ms": 19.916147353565975,
        "vorticity_850_s1": 3.649853533715941e-05,
        "surface_temperature_k": 302.3293762207031,
        "cnn_confidence": 0.5542115569114685,
        "vit_confidence": 0.9757483601570129,
        "xai_mean_ugrdprs": 0.09240125811289243,
        "xai_mean_vgrdprs": 0.09067411835871751,
        "xai_mean_vvelprs": 0.08867842954782096,
        "xai_mean_tmpprs": 0.08943549757212266,
        "xai_mean_rhprs": 0.09081205659504403,
        "xai_mean_hgtprs": 0.08927837831340828,
        "xai_mean_absvprs": 0.09115764672208675,
        "xai_mean_pressfc": 0.09549328757467744,
        "xai_mean_capesfc": 0.0871369373216306,
        "xai_mean_tmpsfc": 0.09432331155383038,
        "xai_mean_landmask": 0.09060907832776899,
        "xai_column_total_ugrdprs": 0.1417669543203929,
        "xai_column_total_vgrdprs": 0.13911707764755296,
        "xai_column_total_vvelprs": 0.1360551846107964,
        "xai_column_total_tmpprs": 0.13721672598144308,
        "xai_column_total_rhprs": 0.13932871462449678,
        "xai_column_total_hgtprs": 0.13697565926421948,
        "xai_column_total_absvprs": 0.13985893568310984,
        "xai_column_total_pressfc": 0.0077111003068195665,
        "xai_column_total_capesfc": 0.007036323506934331,
        "xai_column_total_tmpsfc": 0.007616624530747137,
        "xai_column_total_landmask": 0.007316699523487503
      }
    },
    {
      "type": "Feature",
      "geometry": {
        "type": "Point",
        "coordinates": [
          -160.0,
          6.0
        ]
      },
      "properties": {
        "confidence": 0.9913655519485474,
        "confidence_percent": 99.14,
        "raw_model_score": 0.9913655519485474,
        "raw_model_score_percent": 99.14,
        "lead_time_hrs": 24,
        "validation_threshold": 0.75,
        "top_driver": "pressfc",
        "xai_method": "mean_absolute_input_gradient",
        "source_product": "NCEP FNL native 1-degree analysis",
        "initialization_time_utc": "2026-07-30T00:00:00+00:00",
        "system_class": "HIGH_PRIORITY_MODEL_GENESIS_CANDIDATE",
        "classification_confidence": 0.6757084162261072,
        "classification_confidence_percent": 67.57,
        "classification_reason": "Validated learned XAI/environment classifier produced 67.6%, above the high-priority threshold 40.0%; no official track match is currently available.",
        "land_fraction": 0.0,
        "pressure_anomaly_pa": 10.1015625,
        "midlevel_rh_percent": 97.8000005086263,
        "shear_200_850_ms": 10.136528336618541,
        "vorticity_850_s1": 1.949853503901977e-05,
        "surface_temperature_k": 302.12939453125,
        "cnn_confidence": 0.9299638867378235,
        "vit_confidence": 0.9715769290924072,
        "xai_mean_ugrdprs": 0.09227113262953955,
        "xai_mean_vgrdprs": 0.09102838853965398,
        "xai_mean_vvelprs": 0.08591472068333224,
        "xai_mean_tmpprs": 0.08692079781695014,
        "xai_mean_rhprs": 0.08904102352569537,
        "xai_mean_hgtprs": 0.08398138128306669,
        "xai_mean_absvprs": 0.09140351550287827,
        "xai_mean_pressfc": 0.10563276250131341,
        "xai_mean_capesfc": 0.08108728481375037,
        "xai_mean_tmpsfc": 0.09787950746482645,
        "xai_mean_landmask": 0.09483948523899353,
        "xai_column_total_ugrdprs": 0.14405402451458899,
        "xai_column_total_vgrdprs": 0.14211384740542782,
        "xai_column_total_vvelprs": 0.13413037457955623,
        "xai_column_total_tmpprs": 0.1357010641683511,
        "xai_column_total_rhprs": 0.13901117096043175,
        "xai_column_total_hgtprs": 0.1311120397955865,
        "xai_column_total_absvprs": 0.1426994997417131,
        "xai_column_total_pressfc": 0.008679697358804698,
        "xai_column_total_capesfc": 0.00666282955367945,
        "xai_column_total_tmpsfc": 0.008042623162610138,
        "xai_column_total_landmask": 0.007792828759250276
      }
    },
    {
      "type": "Feature",
      "geometry": {
        "type": "Point",
        "coordinates": [
          133.0,
          12.0
        ]
      },
      "properties": {
        "confidence": 0.9910935759544373,
        "confidence_percent": 99.11,
        "raw_model_score": 0.9910935759544373,
        "raw_model_score_percent": 99.11,
        "lead_time_hrs": 24,
        "validation_threshold": 0.75,
        "top_driver": "pressfc",
        "xai_method": "mean_absolute_input_gradient",
        "source_product": "NCEP FNL native 1-degree analysis",
        "initialization_time_utc": "2026-07-30T00:00:00+00:00",
        "system_class": "HIGH_PRIORITY_MODEL_GENESIS_CANDIDATE",
        "classification_confidence": 0.5228699954731509,
        "classification_confidence_percent": 52.29,
        "classification_reason": "Validated learned XAI/environment classifier produced 52.3%, above the high-priority threshold 40.0%; no official track match is currently available.",
        "land_fraction": 0.027210883796215057,
        "pressure_anomaly_pa": 39.9453125,
        "midlevel_rh_percent": 94.5999984741211,
        "shear_200_850_ms": 12.919298811362298,
        "vorticity_850_s1": 3.7498535675695166e-05,
        "surface_temperature_k": 302.3293762207031,
        "cnn_confidence": 0.9444407820701599,
        "vit_confidence": 0.9226199388504028,
        "xai_mean_ugrdprs": 0.09864171446219124,
        "xai_mean_vgrdprs": 0.08428009382195054,
        "xai_mean_vvelprs": 0.0794587190861201,
        "xai_mean_tmpprs": 0.07897190069475588,
        "xai_mean_rhprs": 0.08378476533964854,
        "xai_mean_hgtprs": 0.07165236927257272,
        "xai_mean_absvprs": 0.0894518018606045,
        "xai_mean_pressfc": 0.15250144745099017,
        "xai_mean_capesfc": 0.06699664342006977,
        "xai_mean_tmpsfc": 0.07570829920838354,
        "xai_mean_landmask": 0.11855224538271299,
        "xai_column_total_ugrdprs": 0.1622348289006738,
        "xai_column_total_vgrdprs": 0.13861444172319903,
        "xai_column_total_vvelprs": 0.1306847804799095,
        "xai_column_total_tmpprs": 0.12988411494323618,
        "xai_column_total_rhprs": 0.13779977910719102,
        "xai_column_total_hgtprs": 0.11784578118586682,
        "xai_column_total_absvprs": 0.14712028550445796,
        "xai_column_total_pressfc": 0.013200908857153281,
        "xai_column_total_capesfc": 0.0057993979618309295,
        "xai_column_total_tmpsfc": 0.00655350079809011,
        "xai_column_total_landmask": 0.010262180538391365
      }
    }
  ]
}