{
  "type": "FeatureCollection",
  "metadata": {
    "initialization_time_utc": "2026-07-27T06:00:00+00:00",
    "lead_time_hrs": 24,
    "threshold": 0.25580963,
    "source_product": "GDAS/GFS f000 analysis",
    "training_domain_note": "Model may have been trained on NCEP/NCAR-family historical fields; operational source is GDAS/GFS.",
    "channel_schema": [
      "ugrdprs_1000",
      "ugrdprs_975",
      "ugrdprs_950",
      "ugrdprs_925",
      "ugrdprs_900",
      "ugrdprs_850",
      "ugrdprs_800",
      "ugrdprs_750",
      "ugrdprs_700",
      "ugrdprs_650",
      "ugrdprs_600",
      "ugrdprs_550",
      "ugrdprs_500",
      "ugrdprs_450",
      "ugrdprs_400",
      "ugrdprs_350",
      "ugrdprs_300",
      "ugrdprs_250",
      "ugrdprs_200",
      "vgrdprs_1000",
      "vgrdprs_975",
      "vgrdprs_950",
      "vgrdprs_925",
      "vgrdprs_900",
      "vgrdprs_850",
      "vgrdprs_800",
      "vgrdprs_750",
      "vgrdprs_700",
      "vgrdprs_650",
      "vgrdprs_600",
      "vgrdprs_550",
      "vgrdprs_500",
      "vgrdprs_450",
      "vgrdprs_400",
      "vgrdprs_350",
      "vgrdprs_300",
      "vgrdprs_250",
      "vgrdprs_200",
      "vvelprs_1000",
      "vvelprs_975",
      "vvelprs_950",
      "vvelprs_925",
      "vvelprs_900",
      "vvelprs_850",
      "vvelprs_800",
      "vvelprs_750",
      "vvelprs_700",
      "vvelprs_650",
      "vvelprs_600",
      "vvelprs_550",
      "vvelprs_500",
      "vvelprs_450",
      "vvelprs_400",
      "vvelprs_350",
      "vvelprs_300",
      "vvelprs_250",
      "vvelprs_200",
      "tmpprs_1000",
      "tmpprs_975",
      "tmpprs_950",
      "tmpprs_925",
      "tmpprs_900",
      "tmpprs_850",
      "tmpprs_800",
      "tmpprs_750",
      "tmpprs_700",
      "tmpprs_650",
      "tmpprs_600",
      "tmpprs_550",
      "tmpprs_500",
      "tmpprs_450",
      "tmpprs_400",
      "tmpprs_350",
      "tmpprs_300",
      "tmpprs_250",
      "tmpprs_200",
      "rhprs_1000",
      "rhprs_975",
      "rhprs_950",
      "rhprs_925",
      "rhprs_900",
      "rhprs_850",
      "rhprs_800",
      "rhprs_750",
      "rhprs_700",
      "rhprs_650",
      "rhprs_600",
      "rhprs_550",
      "rhprs_500",
      "rhprs_450",
      "rhprs_400",
      "rhprs_350",
      "rhprs_300",
      "rhprs_250",
      "rhprs_200",
      "hgtprs_1000",
      "hgtprs_975",
      "hgtprs_950",
      "hgtprs_925",
      "hgtprs_900",
      "hgtprs_850",
      "hgtprs_800",
      "hgtprs_750",
      "hgtprs_700",
      "hgtprs_650",
      "hgtprs_600",
      "hgtprs_550",
      "hgtprs_500",
      "hgtprs_450",
      "hgtprs_400",
      "hgtprs_350",
      "hgtprs_300",
      "hgtprs_250",
      "hgtprs_200",
      "absvprs_1000",
      "absvprs_975",
      "absvprs_950",
      "absvprs_925",
      "absvprs_900",
      "absvprs_850",
      "absvprs_800",
      "absvprs_750",
      "absvprs_700",
      "absvprs_650",
      "absvprs_600",
      "absvprs_550",
      "absvprs_500",
      "absvprs_450",
      "absvprs_400",
      "absvprs_350",
      "absvprs_300",
      "absvprs_250",
      "absvprs_200",
      "pressfc",
      "capesfc",
      "tmpsfc",
      "landmask"
    ]
  },
  "features": [
    {
      "type": "Feature",
      "geometry": {
        "type": "Point",
        "coordinates": [
          -28.825793499299223,
          12.05743265244126
        ]
      },
      "properties": {
        "confidence": 0.9961757659912109,
        "confidence_percent": 99.62,
        "lead_time_hrs": 24,
        "validation_threshold": 0.25580963,
        "top_driver": "pressfc",
        "xai_method": "mean_absolute_input_gradient",
        "source_product": "GDAS/GFS f000 analysis",
        "initialization_time_utc": "2026-07-27T06:00:00+00:00",
        "cnn_confidence": 0.9476823210716248,
        "vit_confidence": 0.9723570346832275,
        "sst_k": 300.1051940917969,
        "midlevel_rh_percent": 75.23333740234375,
        "cyclonic_vorticity_850_s1": 7.673339860048145e-05,
        "vertical_wind_shear_ms": 9.505498886108398,
        "lowlevel_divergence_s1": -5.958480414847145e-06,
        "pressure_anomaly_pa": -43.2265625,
        "land_fraction": 0.0,
        "local_ocean_fraction": 1.0,
        "basin": "North Atlantic",
        "alert_level": "HIGH_CONFIDENCE",
        "representative_grid_latitude": 12.0,
        "representative_grid_longitude": -30.0,
        "cluster_support": 17,
        "cluster_max_confidence": 0.9961757659912109,
        "cluster_mean_confidence": 0.9875741881482741,
        "cluster_rank_score": 1.0539832011491341,
        "xai_mean_ugrdprs": 0.09608008552990831,
        "xai_mean_vgrdprs": 0.08806182642202641,
        "xai_mean_vvelprs": 0.08612069562728313,
        "xai_mean_tmpprs": 0.08628454037831135,
        "xai_mean_rhprs": 0.08758928608915846,
        "xai_mean_hgtprs": 0.08012867335162101,
        "xai_mean_absvprs": 0.09094935765510091,
        "xai_mean_pressfc": 0.10199823141210666,
        "xai_mean_capesfc": 0.08663598578708336,
        "xai_mean_tmpsfc": 0.09754118184447343,
        "xai_mean_landmask": 0.09861013590292697,
        "xai_column_total_ugrdprs": 0.15119617972381358,
        "xai_column_total_vgrdprs": 0.1385782689577924,
        "xai_column_total_vvelprs": 0.13552362102475363,
        "xai_column_total_tmpprs": 0.1357814504314266,
        "xai_column_total_rhprs": 0.13783465577037668,
        "xai_column_total_hgtprs": 0.12609428956867558,
        "xai_column_total_absvprs": 0.14312222971093855,
        "xai_column_total_pressfc": 0.008447855836449998,
        "xai_column_total_capesfc": 0.007175500085103827,
        "xai_column_total_tmpsfc": 0.00807870715924256,
        "xai_column_total_landmask": 0.00816724173142664
      }
    },
    {
      "type": "Feature",
      "geometry": {
        "type": "Point",
        "coordinates": [
          173.50821352774003,
          12.888002338170299
        ]
      },
      "properties": {
        "confidence": 0.9879507422447205,
        "confidence_percent": 98.8,
        "lead_time_hrs": 24,
        "validation_threshold": 0.25580963,
        "top_driver": "pressfc",
        "xai_method": "mean_absolute_input_gradient",
        "source_product": "GDAS/GFS f000 analysis",
        "initialization_time_utc": "2026-07-27T06:00:00+00:00",
        "cnn_confidence": 0.989764928817749,
        "vit_confidence": 0.9548977613449097,
        "sst_k": 302.2052001953125,
        "midlevel_rh_percent": 80.79999542236328,
        "cyclonic_vorticity_850_s1": 4.773339969688095e-05,
        "vertical_wind_shear_ms": 7.883274078369141,
        "lowlevel_divergence_s1": -3.78999925487733e-06,
        "pressure_anomaly_pa": -41.5078125,
        "land_fraction": 0.0,
        "local_ocean_fraction": 1.0,
        "basin": "Western Pacific",
        "alert_level": "HIGH_CONFIDENCE",
        "representative_grid_latitude": 14.0,
        "representative_grid_longitude": 173.0,
        "cluster_support": 21,
        "cluster_max_confidence": 0.9879507422447205,
        "cluster_mean_confidence": 0.885616469950903,
        "cluster_rank_score": 1.0497715913118868,
        "xai_mean_ugrdprs": 0.09211952783818217,
        "xai_mean_vgrdprs": 0.09097448892190128,
        "xai_mean_vvelprs": 0.08069357940205091,
        "xai_mean_tmpprs": 0.085631138028738,
        "xai_mean_rhprs": 0.09609592849483202,
        "xai_mean_hgtprs": 0.08404141918115692,
        "xai_mean_absvprs": 0.08928662614946131,
        "xai_mean_pressfc": 0.09917738102269733,
        "xai_mean_capesfc": 0.09344084321348453,
        "xai_mean_tmpsfc": 0.09654209280933738,
        "xai_mean_landmask": 0.09199697493815817,
        "xai_column_total_ugrdprs": 0.1441837615777148,
        "xai_column_total_vgrdprs": 0.14239156675542294,
        "xai_column_total_vvelprs": 0.12630008517893784,
        "xai_column_total_tmpprs": 0.13402825248055522,
        "xai_column_total_rhprs": 0.15040755742558296,
        "xai_column_total_hgtprs": 0.13154006078637817,
        "xai_column_total_absvprs": 0.13974975417719243,
        "xai_column_total_pressfc": 0.008170030708110334,
        "xai_column_total_capesfc": 0.007697466403868638,
        "xai_column_total_tmpsfc": 0.007952941030949526,
        "xai_column_total_landmask": 0.0075785234752871414
      }
    },
    {
      "type": "Feature",
      "geometry": {
        "type": "Point",
        "coordinates": [
          135.67773225377437,
          10.546363178770628
        ]
      },
      "properties": {
        "confidence": 0.985287070274353,
        "confidence_percent": 98.53,
        "lead_time_hrs": 24,
        "validation_threshold": 0.25580963,
        "top_driver": "pressfc",
        "xai_method": "mean_absolute_input_gradient",
        "source_product": "GDAS/GFS f000 analysis",
        "initialization_time_utc": "2026-07-27T06:00:00+00:00",
        "cnn_confidence": 0.6150888204574585,
        "vit_confidence": 0.9294792413711548,
        "sst_k": 302.1051940917969,
        "midlevel_rh_percent": 81.5,
        "cyclonic_vorticity_850_s1": 4.573339901980944e-05,
        "vertical_wind_shear_ms": 3.153512954711914,
        "lowlevel_divergence_s1": -6.5224789977946784e-06,
        "pressure_anomaly_pa": -49.1484375,
        "land_fraction": 0.0,
        "local_ocean_fraction": 1.0,
        "basin": "Western Pacific",
        "alert_level": "HIGH_CONFIDENCE",
        "representative_grid_latitude": 11.0,
        "representative_grid_longitude": 135.0,
        "cluster_support": 13,
        "cluster_max_confidence": 0.985287070274353,
        "cluster_mean_confidence": 0.8937809192217313,
        "cluster_rank_score": 1.0380682168666582,
        "xai_mean_ugrdprs": 0.08282112485089242,
        "xai_mean_vgrdprs": 0.08051035045528823,
        "xai_mean_vvelprs": 0.07005156514669936,
        "xai_mean_tmpprs": 0.07614168572818325,
        "xai_mean_rhprs": 0.07775593747610995,
        "xai_mean_hgtprs": 0.06412281605719315,
        "xai_mean_absvprs": 0.08456751708543475,
        "xai_mean_pressfc": 0.17568458463477737,
        "xai_mean_capesfc": 0.05854152304930095,
        "xai_mean_tmpsfc": 0.08398502528802636,
        "xai_mean_landmask": 0.1458178702280942,
        "xai_column_total_ugrdprs": 0.14779100222188307,
        "xai_column_total_vgrdprs": 0.1436675138778339,
        "xai_column_total_vvelprs": 0.12500422627259644,
        "xai_column_total_tmpprs": 0.13587180005776772,
        "xai_column_total_rhprs": 0.1387523666005513,
        "xai_column_total_hgtprs": 0.11442460634183482,
        "xai_column_total_absvprs": 0.15090736596347543,
        "xai_column_total_pressfc": 0.01650011244471835,
        "xai_column_total_capesfc": 0.005498158617653271,
        "xai_column_total_tmpsfc": 0.007887785737182046,
        "xai_column_total_landmask": 0.013695061864503644
      }
    }
  ]
}