{
    "type": "FeatureCollection",
    "features": [
        {
            "type": "Feature",
            "geometry": {
                "type": "Point",
                "coordinates": [
                    -100.0,
                    11.0
                ]
            },
            "properties": {
                "confidence": 0.9974193572998047,
                "confidence_percent": 99.74,
                "cnn_confidence": 0.9891316890716553,
                "vit_confidence": 0.9925181865692139,
                "lead_time_hrs": 24,
                "top_driver": "rhprs",
                "ugrdprs": 4.304766116547398e-05,
                "vgrdprs": 4.3028609070461243e-05,
                "vvelprs": 4.1232764488086104e-05,
                "tmpprs": 4.2086016037501395e-05,
                "rhprs": 4.33306850027293e-05,
                "hgtprs": 4.3192823795834556e-05,
                "absvprs": 4.249486664775759e-05,
                "pressfc": 2.26970701078244e-06,
                "capesfc": 2.2967385575611843e-06,
                "tmpsfc": 2.141307049896568e-06,
                "landmask": 2.147659415641101e-06
            }
        },
        {
            "type": "Feature",
            "geometry": {
                "type": "Point",
                "coordinates": [
                    88.0,
                    21.0
                ]
            },
            "properties": {
                "confidence": 0.9971659779548645,
                "confidence_percent": 99.72,
                "cnn_confidence": 0.9717181921005249,
                "vit_confidence": 0.9842026233673096,
                "lead_time_hrs": 24,
                "top_driver": "ugrdprs",
                "ugrdprs": 5.785556641058065e-05,
                "vgrdprs": 5.5844549933681265e-05,
                "vvelprs": 5.529513146029785e-05,
                "tmpprs": 5.5802382121328264e-05,
                "rhprs": 5.532203067559749e-05,
                "hgtprs": 5.5120915931183845e-05,
                "absvprs": 5.5029686336638406e-05,
                "pressfc": 3.179995701430016e-06,
                "capesfc": 2.879134171962505e-06,
                "tmpsfc": 2.9268448997754604e-06,
                "landmask": 2.9117072699591517e-06
            }
        },
        {
            "type": "Feature",
            "geometry": {
                "type": "Point",
                "coordinates": [
                    -173.0,
                    11.0
                ]
            },
            "properties": {
                "confidence": 0.9967457056045532,
                "confidence_percent": 99.67,
                "cnn_confidence": 0.9831227660179138,
                "vit_confidence": 0.9831376075744629,
                "lead_time_hrs": 24,
                "top_driver": "absvprs",
                "ugrdprs": 5.9119971410837024e-05,
                "vgrdprs": 5.786935071228072e-05,
                "vvelprs": 5.554396557272412e-05,
                "tmpprs": 5.508523099706508e-05,
                "rhprs": 5.7903271226678044e-05,
                "hgtprs": 5.343549855751917e-05,
                "absvprs": 5.923106800764799e-05,
                "pressfc": 3.8688954191457015e-06,
                "capesfc": 3.0618675737059675e-06,
                "tmpsfc": 3.0733560834050877e-06,
                "landmask": 3.289067990408512e-06
            }
        },
        {
            "type": "Feature",
            "geometry": {
                "type": "Point",
                "coordinates": [
                    -105.0,
                    10.0
                ]
            },
            "properties": {
                "confidence": 0.9952396154403687,
                "confidence_percent": 99.52,
                "cnn_confidence": 0.9419166445732117,
                "vit_confidence": 0.9872532486915588,
                "lead_time_hrs": 24,
                "top_driver": "ugrdprs",
                "ugrdprs": 0.00015452754450961947,
                "vgrdprs": 0.00015015543613117188,
                "vvelprs": 0.0001509028661530465,
                "tmpprs": 0.0001479776547057554,
                "rhprs": 0.00015019816055428237,
                "hgtprs": 0.00015105155762284994,
                "absvprs": 0.0001510489673819393,
                "pressfc": 8.092310054053087e-06,
                "capesfc": 7.849702342355158e-06,
                "tmpsfc": 7.57722364141955e-06,
                "landmask": 7.866055966587737e-06
            }
        },
        {
            "type": "Feature",
            "geometry": {
                "type": "Point",
                "coordinates": [
                    -178.0,
                    9.0
                ]
            },
            "properties": {
                "confidence": 0.9932253956794739,
                "confidence_percent": 99.32,
                "cnn_confidence": 0.8998852372169495,
                "vit_confidence": 0.9469172954559326,
                "lead_time_hrs": 24,
                "top_driver": "ugrdprs",
                "ugrdprs": 0.0001583338453201577,
                "vgrdprs": 0.00015810030163265765,
                "vvelprs": 0.00014477293007075787,
                "tmpprs": 0.00015334897034335881,
                "rhprs": 0.00015553364937659353,
                "hgtprs": 0.0001399710454279557,
                "absvprs": 0.0001572051551192999,
                "pressfc": 8.283152965304907e-06,
                "capesfc": 7.1105232564150356e-06,
                "tmpsfc": 8.171242370735854e-06,
                "landmask": 7.900521268311422e-06
            }
        },
        {
            "type": "Feature",
            "geometry": {
                "type": "Point",
                "coordinates": [
                    -168.0,
                    10.0
                ]
            },
            "properties": {
                "confidence": 0.986570417881012,
                "confidence_percent": 98.66,
                "cnn_confidence": 0.8826258778572083,
                "vit_confidence": 0.9515305757522583,
                "lead_time_hrs": 24,
                "top_driver": "vgrdprs",
                "ugrdprs": 0.0005777885089628398,
                "vgrdprs": 0.0006248762947507203,
                "vvelprs": 0.0005287463427521288,
                "tmpprs": 0.0005394610925577581,
                "rhprs": 0.0005745221278630197,
                "hgtprs": 0.00047317304415628314,
                "absvprs": 0.0006129323737695813,
                "pressfc": 5.0966162234544754e-05,
                "capesfc": 2.6992523999069817e-05,
                "tmpsfc": 3.681282760226168e-05,
                "landmask": 5.321991920936853e-05
            }
        },
        {
            "type": "Feature",
            "geometry": {
                "type": "Point",
                "coordinates": [
                    -94.0,
                    11.0
                ]
            },
            "properties": {
                "confidence": 0.975109875202179,
                "confidence_percent": 97.51,
                "cnn_confidence": 0.4518513083457947,
                "vit_confidence": 0.9470494389533997,
                "lead_time_hrs": 24,
                "top_driver": "vgrdprs",
                "ugrdprs": 0.0013988758437335491,
                "vgrdprs": 0.0014031664468348026,
                "vvelprs": 0.0012395044323056936,
                "tmpprs": 0.001276262104511261,
                "rhprs": 0.001365636708214879,
                "hgtprs": 0.001230950583703816,
                "absvprs": 0.0013668335741385818,
                "pressfc": 8.700183389009908e-05,
                "capesfc": 6.278072396526113e-05,
                "tmpsfc": 7.19515883247368e-05,
                "landmask": 7.92287610238418e-05
            }
        },
        {
            "type": "Feature",
            "geometry": {
                "type": "Point",
                "coordinates": [
                    -101.0,
                    6.0
                ]
            },
            "properties": {
                "confidence": 0.9701804518699646,
                "confidence_percent": 97.02,
                "cnn_confidence": 0.637455403804779,
                "vit_confidence": 0.9417844414710999,
                "lead_time_hrs": 24,
                "top_driver": "ugrdprs",
                "ugrdprs": 0.0010502206860110164,
                "vgrdprs": 0.0009986399672925472,
                "vvelprs": 0.0009148551616817713,
                "tmpprs": 0.0009288547444157302,
                "rhprs": 0.001000602962449193,
                "hgtprs": 0.0008946606540121138,
                "absvprs": 0.0010126265697181225,
                "pressfc": 6.674801261397079e-05,
                "capesfc": 5.643437907565385e-05,
                "tmpsfc": 6.283059337874874e-05,
                "landmask": 6.105435022618622e-05
            }
        },
        {
            "type": "Feature",
            "geometry": {
                "type": "Point",
                "coordinates": [
                    -172.0,
                    6.0
                ]
            },
            "properties": {
                "confidence": 0.9676880240440369,
                "confidence_percent": 96.77,
                "cnn_confidence": 0.536540687084198,
                "vit_confidence": 0.9598431587219238,
                "lead_time_hrs": 24,
                "top_driver": "vgrdprs",
                "ugrdprs": 0.001763604930602014,
                "vgrdprs": 0.0018389661563560367,
                "vvelprs": 0.0014839849900454283,
                "tmpprs": 0.001520525198429823,
                "rhprs": 0.0016642502741888165,
                "hgtprs": 0.0014039089437574148,
                "absvprs": 0.0017081777332350612,
                "pressfc": 0.00015387864550575614,
                "capesfc": 8.235550922108814e-05,
                "tmpsfc": 0.00010010174446506426,
                "landmask": 0.00013733436935581267
            }
        },
        {
            "type": "Feature",
            "geometry": {
                "type": "Point",
                "coordinates": [
                    69.0,
                    22.0
                ]
            },
            "properties": {
                "confidence": 0.9532350897789001,
                "confidence_percent": 95.32,
                "cnn_confidence": 0.9464274048805237,
                "vit_confidence": 0.8523792624473572,
                "lead_time_hrs": 24,
                "top_driver": "ugrdprs",
                "ugrdprs": 0.0015592311974614859,
                "vgrdprs": 0.0012681700754910707,
                "vvelprs": 0.0011278814636170864,
                "tmpprs": 0.0012272190069779754,
                "rhprs": 0.001415879582054913,
                "hgtprs": 0.0011570733040571213,
                "absvprs": 0.0012805421138182282,
                "pressfc": 0.00014675028796773404,
                "capesfc": 6.186624523252249e-05,
                "tmpsfc": 6.332986959023401e-05,
                "landmask": 9.386095916852355e-05
            }
        },
        {
            "type": "Feature",
            "geometry": {
                "type": "Point",
                "coordinates": [
                    93.0,
                    20.0
                ]
            },
            "properties": {
                "confidence": 0.926303505897522,
                "confidence_percent": 92.63,
                "cnn_confidence": 0.8411962389945984,
                "vit_confidence": 0.8625400066375732,
                "lead_time_hrs": 24,
                "top_driver": "ugrdprs",
                "ugrdprs": 0.004036528058350086,
                "vgrdprs": 0.003273280570283532,
                "vvelprs": 0.003148705931380391,
                "tmpprs": 0.003383573843166232,
                "rhprs": 0.0033027040772140026,
                "hgtprs": 0.003038461087271571,
                "absvprs": 0.0033661711495369673,
                "pressfc": 0.000347079592756927,
                "capesfc": 0.000154050430865027,
                "tmpsfc": 0.00016534111637156457,
                "landmask": 0.00024945626500993967
            }
        },
        {
            "type": "Feature",
            "geometry": {
                "type": "Point",
                "coordinates": [
                    -104.0,
                    15.0
                ]
            },
            "properties": {
                "confidence": 0.9043038487434387,
                "confidence_percent": 90.43,
                "cnn_confidence": 0.2533615827560425,
                "vit_confidence": 0.9158759713172913,
                "lead_time_hrs": 24,
                "top_driver": "ugrdprs",
                "ugrdprs": 0.0038460874930024147,
                "vgrdprs": 0.003659542417153716,
                "vvelprs": 0.003322743345052004,
                "tmpprs": 0.0035697934217751026,
                "rhprs": 0.003780025988817215,
                "hgtprs": 0.0033335562329739332,
                "absvprs": 0.0036345284897834063,
                "pressfc": 0.00024563667830079794,
                "capesfc": 0.00018667863332666457,
                "tmpsfc": 0.00020029985171277076,
                "landmask": 0.00018695949984248728
            }
        },
        {
            "type": "Feature",
            "geometry": {
                "type": "Point",
                "coordinates": [
                    169.0,
                    31.0
                ]
            },
            "properties": {
                "confidence": 0.9032554030418396,
                "confidence_percent": 90.33,
                "cnn_confidence": 0.4154856204986572,
                "vit_confidence": 0.8592084050178528,
                "lead_time_hrs": 24,
                "top_driver": "ugrdprs",
                "ugrdprs": 0.005709126126021147,
                "vgrdprs": 0.005321862176060677,
                "vvelprs": 0.004162934608757496,
                "tmpprs": 0.00483865337446332,
                "rhprs": 0.004697842989116907,
                "hgtprs": 0.004281677305698395,
                "absvprs": 0.0047566648572683334,
                "pressfc": 0.00048721281928010285,
                "capesfc": 0.00021555242710746825,
                "tmpsfc": 0.00035232698428444564,
                "landmask": 0.00039971646037884057
            }
        },
        {
            "type": "Feature",
            "geometry": {
                "type": "Point",
                "coordinates": [
                    -88.0,
                    9.0
                ]
            },
            "properties": {
                "confidence": 0.9024107456207275,
                "confidence_percent": 90.24,
                "cnn_confidence": 0.8684017658233643,
                "vit_confidence": 0.7960150241851807,
                "lead_time_hrs": 24,
                "top_driver": "absvprs",
                "ugrdprs": 0.005739754531532526,
                "vgrdprs": 0.004904161207377911,
                "vvelprs": 0.004129038657993078,
                "tmpprs": 0.004660418257117271,
                "rhprs": 0.0049865213222801685,
                "hgtprs": 0.0036709043197333813,
                "absvprs": 0.005798614118248224,
                "pressfc": 0.0005526606109924614,
                "capesfc": 0.0001873741566669196,
                "tmpsfc": 0.0003446954069659114,
                "landmask": 0.0004170722095295787
            }
        },
        {
            "type": "Feature",
            "geometry": {
                "type": "Point",
                "coordinates": [
                    -97.0,
                    28.0
                ]
            },
            "properties": {
                "confidence": 0.8769531846046448,
                "confidence_percent": 87.7,
                "cnn_confidence": 0.2500859498977661,
                "vit_confidence": 0.7431312203407288,
                "lead_time_hrs": 24,
                "top_driver": "ugrdprs",
                "ugrdprs": 0.006174491718411446,
                "vgrdprs": 0.005835744086652994,
                "vvelprs": 0.0052684275433421135,
                "tmpprs": 0.005648144520819187,
                "rhprs": 0.0061627961695194244,
                "hgtprs": 0.005374803673475981,
                "absvprs": 0.005625656805932522,
                "pressfc": 0.00045627288636751473,
                "capesfc": 0.0003265454724896699,
                "tmpsfc": 0.000307547947159037,
                "landmask": 0.0003316155052743852
            }
        },
        {
            "type": "Feature",
            "geometry": {
                "type": "Point",
                "coordinates": [
                    144.0,
                    21.0
                ]
            },
            "properties": {
                "confidence": 0.8762771487236023,
                "confidence_percent": 87.63,
                "cnn_confidence": 0.47335755825042725,
                "vit_confidence": 0.7993882894515991,
                "lead_time_hrs": 24,
                "top_driver": "ugrdprs",
                "ugrdprs": 0.0071286605671048164,
                "vgrdprs": 0.006738513708114624,
                "vvelprs": 0.00562776206061244,
                "tmpprs": 0.006050141528248787,
                "rhprs": 0.006499957293272018,
                "hgtprs": 0.005689755082130432,
                "absvprs": 0.0063703167252242565,
                "pressfc": 0.0008353405864909291,
                "capesfc": 0.00028500723419710994,
                "tmpsfc": 0.0003347896854393184,
                "landmask": 0.0005893526249565184
            }
        },
        {
            "type": "Feature",
            "geometry": {
                "type": "Point",
                "coordinates": [
                    -67.0,
                    28.0
                ]
            },
            "properties": {
                "confidence": 0.8145085573196411,
                "confidence_percent": 81.45,
                "cnn_confidence": 0.44420748949050903,
                "vit_confidence": 0.7629481554031372,
                "lead_time_hrs": 24,
                "top_driver": "ugrdprs",
                "ugrdprs": 0.005506070796400309,
                "vgrdprs": 0.005318548064678907,
                "vvelprs": 0.005135002080351114,
                "tmpprs": 0.005145169794559479,
                "rhprs": 0.005491901189088821,
                "hgtprs": 0.005057953298091888,
                "absvprs": 0.005275940056890249,
                "pressfc": 0.0003607323160395026,
                "capesfc": 0.00027620428591035306,
                "tmpsfc": 0.00031597056658938527,
                "landmask": 0.0002992331574205309
            }
        },
        {
            "type": "Feature",
            "geometry": {
                "type": "Point",
                "coordinates": [
                    175.0,
                    8.0
                ]
            },
            "properties": {
                "confidence": 0.7996277809143066,
                "confidence_percent": 79.96,
                "cnn_confidence": 0.6861575245857239,
                "vit_confidence": 0.769641101360321,
                "lead_time_hrs": 24,
                "top_driver": "ugrdprs",
                "ugrdprs": 0.0055133504793047905,
                "vgrdprs": 0.004922902677208185,
                "vvelprs": 0.004598630592226982,
                "tmpprs": 0.0050067235715687275,
                "rhprs": 0.004908935632556677,
                "hgtprs": 0.004426266998052597,
                "absvprs": 0.0053949239663779736,
                "pressfc": 0.0004117652424611151,
                "capesfc": 0.00024705639225430787,
                "tmpsfc": 0.00033432015334255993,
                "landmask": 0.0003661328228190541
            }
        },
        {
            "type": "Feature",
            "geometry": {
                "type": "Point",
                "coordinates": [
                    -76.0,
                    35.0
                ]
            },
            "properties": {
                "confidence": 0.7967323660850525,
                "confidence_percent": 79.67,
                "cnn_confidence": 0.3406441807746887,
                "vit_confidence": 0.5593669414520264,
                "lead_time_hrs": 24,
                "top_driver": "ugrdprs",
                "ugrdprs": 0.006753415334969759,
                "vgrdprs": 0.006716745439916849,
                "vvelprs": 0.005662478040903807,
                "tmpprs": 0.005988966207951307,
                "rhprs": 0.006173581350594759,
                "hgtprs": 0.00579585088416934,
                "absvprs": 0.0062019480392336845,
                "pressfc": 0.00048740635975264013,
                "capesfc": 0.00033270096173509955,
                "tmpsfc": 0.0003803134604822844,
                "landmask": 0.0004080689395777881
            }
        },
        {
            "type": "Feature",
            "geometry": {
                "type": "Point",
                "coordinates": [
                    120.0,
                    13.0
                ]
            },
            "properties": {
                "confidence": 0.7862871289253235,
                "confidence_percent": 78.63,
                "cnn_confidence": 0.6966679096221924,
                "vit_confidence": 0.6826968789100647,
                "lead_time_hrs": 24,
                "top_driver": "ugrdprs",
                "ugrdprs": 0.008654645644128323,
                "vgrdprs": 0.006798749323934317,
                "vvelprs": 0.005720831453800201,
                "tmpprs": 0.007120058871805668,
                "rhprs": 0.007071749307215214,
                "hgtprs": 0.005605550017207861,
                "absvprs": 0.006966463290154934,
                "pressfc": 0.0006952281692065299,
                "capesfc": 0.0003348790341988206,
                "tmpsfc": 0.0006550358375534415,
                "landmask": 0.00048502502613700926
            }
        },
        {
            "type": "Feature",
            "geometry": {
                "type": "Point",
                "coordinates": [
                    -74.0,
                    27.0
                ]
            },
            "properties": {
                "confidence": 0.7595545649528503,
                "confidence_percent": 75.96,
                "cnn_confidence": 0.4737475514411926,
                "vit_confidence": 0.6399785876274109,
                "lead_time_hrs": 24,
                "top_driver": "ugrdprs",
                "ugrdprs": 0.005519690457731485,
                "vgrdprs": 0.005236901342868805,
                "vvelprs": 0.005095753353089094,
                "tmpprs": 0.005036250688135624,
                "rhprs": 0.005371416918933392,
                "hgtprs": 0.004713365808129311,
                "absvprs": 0.005096441134810448,
                "pressfc": 0.00041576509829610586,
                "capesfc": 0.00029909907607361674,
                "tmpsfc": 0.000274173537036404,
                "landmask": 0.00034153705928474665
            }
        },
        {
            "type": "Feature",
            "geometry": {
                "type": "Point",
                "coordinates": [
                    121.0,
                    19.0
                ]
            },
            "properties": {
                "confidence": 0.7573941349983215,
                "confidence_percent": 75.74,
                "cnn_confidence": 0.989915132522583,
                "vit_confidence": 0.5911426544189453,
                "lead_time_hrs": 24,
                "top_driver": "ugrdprs",
                "ugrdprs": 0.007215253543108702,
                "vgrdprs": 0.006917660124599934,
                "vvelprs": 0.00476685119792819,
                "tmpprs": 0.0057816398330032825,
                "rhprs": 0.006643255241215229,
                "hgtprs": 0.004835029598325491,
                "absvprs": 0.005740544758737087,
                "pressfc": 0.0010309935314580798,
                "capesfc": 0.0002398672077106312,
                "tmpsfc": 0.000514848274178803,
                "landmask": 0.00042536374530754983
            }
        },
        {
            "type": "Feature",
            "geometry": {
                "type": "Point",
                "coordinates": [
                    -99.0,
                    16.0
                ]
            },
            "properties": {
                "confidence": 0.7476586103439331,
                "confidence_percent": 74.77,
                "cnn_confidence": 0.29608777165412903,
                "vit_confidence": 0.7058941721916199,
                "lead_time_hrs": 24,
                "top_driver": "ugrdprs",
                "ugrdprs": 0.0019077274482697248,
                "vgrdprs": 0.0018897304544225335,
                "vvelprs": 0.0018311472376808524,
                "tmpprs": 0.0018277581548318267,
                "rhprs": 0.0018436502432450652,
                "hgtprs": 0.0018501844024285674,
                "absvprs": 0.001881150878034532,
                "pressfc": 0.00010721902799559757,
                "capesfc": 9.695526387076825e-05,
                "tmpsfc": 9.819966362556443e-05,
                "landmask": 9.175236482406035e-05
            }
        },
        {
            "type": "Feature",
            "geometry": {
                "type": "Point",
                "coordinates": [
                    138.0,
                    20.0
                ]
            },
            "properties": {
                "confidence": 0.7467244267463684,
                "confidence_percent": 74.67,
                "cnn_confidence": 0.2408027946949005,
                "vit_confidence": 0.6099635362625122,
                "lead_time_hrs": 24,
                "top_driver": "ugrdprs",
                "ugrdprs": 0.007115410640835762,
                "vgrdprs": 0.006656003184616566,
                "vvelprs": 0.005960096605122089,
                "tmpprs": 0.006204935722053051,
                "rhprs": 0.006392637267708778,
                "hgtprs": 0.005720361135900021,
                "absvprs": 0.006433902308344841,
                "pressfc": 0.0005772397853434086,
                "capesfc": 0.00030483599402941763,
                "tmpsfc": 0.0003445165930315852,
                "landmask": 0.0004277326515875757
            }
        },
        {
            "type": "Feature",
            "geometry": {
                "type": "Point",
                "coordinates": [
                    64.0,
                    25.0
                ]
            },
            "properties": {
                "confidence": 0.7457316517829895,
                "confidence_percent": 74.57,
                "cnn_confidence": 0.6631148457527161,
                "vit_confidence": 0.7684908509254456,
                "lead_time_hrs": 24,
                "top_driver": "ugrdprs",
                "ugrdprs": 0.0039021277334541082,
                "vgrdprs": 0.0034255837090313435,
                "vvelprs": 0.003069405211135745,
                "tmpprs": 0.0034247515723109245,
                "rhprs": 0.0037378992419689894,
                "hgtprs": 0.0032069527078419924,
                "absvprs": 0.0035239323042333126,
                "pressfc": 0.000490417005494237,
                "capesfc": 0.00014871831808704883,
                "tmpsfc": 0.00020317587768658996,
                "landmask": 0.0002942285209428519
            }
        },
        {
            "type": "Feature",
            "geometry": {
                "type": "Point",
                "coordinates": [
                    149.0,
                    22.0
                ]
            },
            "properties": {
                "confidence": 0.7373833656311035,
                "confidence_percent": 73.74,
                "cnn_confidence": 0.40224945545196533,
                "vit_confidence": 0.3761567175388336,
                "lead_time_hrs": 24,
                "top_driver": "ugrdprs",
                "ugrdprs": 0.007345519028604031,
                "vgrdprs": 0.006889981683343649,
                "vvelprs": 0.006632585544139147,
                "tmpprs": 0.006758731324225664,
                "rhprs": 0.007091978099197149,
                "hgtprs": 0.006587265059351921,
                "absvprs": 0.0068446313962340355,
                "pressfc": 0.0005272910930216312,
                "capesfc": 0.0003865640901494771,
                "tmpsfc": 0.00037757662357762456,
                "landmask": 0.00040007056668400764
            }
        },
        {
            "type": "Feature",
            "geometry": {
                "type": "Point",
                "coordinates": [
                    -106.0,
                    4.0
                ]
            },
            "properties": {
                "confidence": 0.7139105796813965,
                "confidence_percent": 71.39,
                "cnn_confidence": 0.28452640771865845,
                "vit_confidence": 0.6222029328346252,
                "lead_time_hrs": 24,
                "top_driver": "ugrdprs",
                "ugrdprs": 0.005606160499155521,
                "vgrdprs": 0.00538100628182292,
                "vvelprs": 0.0046416581608355045,
                "tmpprs": 0.004923711996525526,
                "rhprs": 0.005555437877774239,
                "hgtprs": 0.004633635748177767,
                "absvprs": 0.0051286048255860806,
                "pressfc": 0.00035805971128866076,
                "capesfc": 0.00030825493740849197,
                "tmpsfc": 0.00038676252006553113,
                "landmask": 0.00034745290759019554
            }
        },
        {
            "type": "Feature",
            "geometry": {
                "type": "Point",
                "coordinates": [
                    120.0,
                    35.0
                ]
            },
            "properties": {
                "confidence": 0.7050730586051941,
                "confidence_percent": 70.51,
                "cnn_confidence": 0.3465292453765869,
                "vit_confidence": 0.5332882404327393,
                "lead_time_hrs": 24,
                "top_driver": "ugrdprs",
                "ugrdprs": 0.009096723981201649,
                "vgrdprs": 0.007771229837089777,
                "vvelprs": 0.006646089721471071,
                "tmpprs": 0.007805126719176769,
                "rhprs": 0.008794035762548447,
                "hgtprs": 0.006365186534821987,
                "absvprs": 0.007590294815599918,
                "pressfc": 0.0013915691524744034,
                "capesfc": 0.0003417318221181631,
                "tmpsfc": 0.00055208511184901,
                "landmask": 0.0007668192847631872
            }
        },
        {
            "type": "Feature",
            "geometry": {
                "type": "Point",
                "coordinates": [
                    163.0,
                    13.0
                ]
            },
            "properties": {
                "confidence": 0.6842188835144043,
                "confidence_percent": 68.42,
                "cnn_confidence": 0.42423778772354126,
                "vit_confidence": 0.5309293866157532,
                "lead_time_hrs": 24,
                "top_driver": "ugrdprs",
                "ugrdprs": 0.008232124149799347,
                "vgrdprs": 0.006636952981352806,
                "vvelprs": 0.00634913332760334,
                "tmpprs": 0.007200775668025017,
                "rhprs": 0.0074919043108820915,
                "hgtprs": 0.00587060721591115,
                "absvprs": 0.00730469124391675,
                "pressfc": 0.0007710270583629608,
                "capesfc": 0.00031826773192733526,
                "tmpsfc": 0.0004946246044710279,
                "landmask": 0.0006103208870626986
            }
        },
        {
            "type": "Feature",
            "geometry": {
                "type": "Point",
                "coordinates": [
                    135.0,
                    15.0
                ]
            },
            "properties": {
                "confidence": 0.6525557637214661,
                "confidence_percent": 65.26,
                "cnn_confidence": 0.6878454089164734,
                "vit_confidence": 0.3279077708721161,
                "lead_time_hrs": 24,
                "top_driver": "ugrdprs",
                "ugrdprs": 0.006189488805830479,
                "vgrdprs": 0.005886028986424208,
                "vvelprs": 0.005154695827513933,
                "tmpprs": 0.005620673764497042,
                "rhprs": 0.005704644601792097,
                "hgtprs": 0.005326568149030209,
                "absvprs": 0.005816599819809198,
                "pressfc": 0.0005656626890413463,
                "capesfc": 0.00028822128660976887,
                "tmpsfc": 0.00032708095386624336,
                "landmask": 0.0003934844571631402
            }
        },
        {
            "type": "Feature",
            "geometry": {
                "type": "Point",
                "coordinates": [
                    -108.0,
                    24.0
                ]
            },
            "properties": {
                "confidence": 0.6327390670776367,
                "confidence_percent": 63.27,
                "cnn_confidence": 0.2857612669467926,
                "vit_confidence": 0.4987802505493164,
                "lead_time_hrs": 24,
                "top_driver": "ugrdprs",
                "ugrdprs": 0.012008053250610828,
                "vgrdprs": 0.010882211849093437,
                "vvelprs": 0.008530249819159508,
                "tmpprs": 0.009623706340789795,
                "rhprs": 0.010359391570091248,
                "hgtprs": 0.008742282167077065,
                "absvprs": 0.009485646151006222,
                "pressfc": 0.0012429888593032956,
                "capesfc": 0.0005386462435126305,
                "tmpsfc": 0.0004775818670168519,
                "landmask": 0.0008661472820676863
            }
        },
        {
            "type": "Feature",
            "geometry": {
                "type": "Point",
                "coordinates": [
                    -96.0,
                    5.0
                ]
            },
            "properties": {
                "confidence": 0.622897744178772,
                "confidence_percent": 62.29,
                "cnn_confidence": 0.26808759570121765,
                "vit_confidence": 0.5635184049606323,
                "lead_time_hrs": 24,
                "top_driver": "ugrdprs",
                "ugrdprs": 0.0043060858733952045,
                "vgrdprs": 0.004194311797618866,
                "vvelprs": 0.0040848152711987495,
                "tmpprs": 0.004048753064125776,
                "rhprs": 0.004128419794142246,
                "hgtprs": 0.0040884558111429214,
                "absvprs": 0.004113104194402695,
                "pressfc": 0.0002507198369130492,
                "capesfc": 0.0002238950546598062,
                "tmpsfc": 0.00021686629042960703,
                "landmask": 0.0002136600814992562
            }
        },
        {
            "type": "Feature",
            "geometry": {
                "type": "Point",
                "coordinates": [
                    -82.0,
                    11.0
                ]
            },
            "properties": {
                "confidence": 0.5972750782966614,
                "confidence_percent": 59.73,
                "cnn_confidence": 0.39326417446136475,
                "vit_confidence": 0.42377766966819763,
                "lead_time_hrs": 24,
                "top_driver": "ugrdprs",
                "ugrdprs": 0.013286596164107323,
                "vgrdprs": 0.012102832086384296,
                "vvelprs": 0.008968283422291279,
                "tmpprs": 0.0108556617051363,
                "rhprs": 0.011622934602200985,
                "hgtprs": 0.008762835524976254,
                "absvprs": 0.012244818732142448,
                "pressfc": 0.0014674400445073843,
                "capesfc": 0.0005593689274974167,
                "tmpsfc": 0.0007304411265067756,
                "landmask": 0.0009641333599574864
            }
        },
        {
            "type": "Feature",
            "geometry": {
                "type": "Point",
                "coordinates": [
                    168.0,
                    26.0
                ]
            },
            "properties": {
                "confidence": 0.5907856822013855,
                "confidence_percent": 59.08,
                "cnn_confidence": 0.3273236155509949,
                "vit_confidence": 0.29267776012420654,
                "lead_time_hrs": 24,
                "top_driver": "ugrdprs",
                "ugrdprs": 0.012579111382365227,
                "vgrdprs": 0.010737990960478783,
                "vvelprs": 0.009629354812204838,
                "tmpprs": 0.011030002497136593,
                "rhprs": 0.011486305855214596,
                "hgtprs": 0.009102464653551579,
                "absvprs": 0.010907464660704136,
                "pressfc": 0.0011282487539574504,
                "capesfc": 0.000560059561394155,
                "tmpsfc": 0.0007576597854495049,
                "landmask": 0.000778546673245728
            }
        },
        {
            "type": "Feature",
            "geometry": {
                "type": "Point",
                "coordinates": [
                    -177.0,
                    4.0
                ]
            },
            "properties": {
                "confidence": 0.5357224345207214,
                "confidence_percent": 53.57,
                "cnn_confidence": 0.211260125041008,
                "vit_confidence": 0.4103868007659912,
                "lead_time_hrs": 24,
                "top_driver": "ugrdprs",
                "ugrdprs": 0.006775597110390663,
                "vgrdprs": 0.006378658581525087,
                "vvelprs": 0.005849936045706272,
                "tmpprs": 0.006012575700879097,
                "rhprs": 0.006439600605517626,
                "hgtprs": 0.005803251639008522,
                "absvprs": 0.006248589139431715,
                "pressfc": 0.0004030604031868279,
                "capesfc": 0.00030310312286019325,
                "tmpsfc": 0.0003517261939123273,
                "landmask": 0.00038373726420104504
            }
        },
        {
            "type": "Feature",
            "geometry": {
                "type": "Point",
                "coordinates": [
                    144.0,
                    8.0
                ]
            },
            "properties": {
                "confidence": 0.5096355676651001,
                "confidence_percent": 50.96,
                "cnn_confidence": 0.4794532358646393,
                "vit_confidence": 0.3500152826309204,
                "lead_time_hrs": 24,
                "top_driver": "absvprs",
                "ugrdprs": 0.014067922718822956,
                "vgrdprs": 0.013307787477970123,
                "vvelprs": 0.011793479323387146,
                "tmpprs": 0.012569259852170944,
                "rhprs": 0.012557345442473888,
                "hgtprs": 0.01154216006398201,
                "absvprs": 0.014082148671150208,
                "pressfc": 0.0014515402726829052,
                "capesfc": 0.0005898032104596496,
                "tmpsfc": 0.0007506579277105629,
                "landmask": 0.0011527111055329442
            }
        }
    ]
}