{
    "type": "FeatureCollection",
    "features": [
        {
            "type": "Feature",
            "geometry": {
                "type": "Point",
                "coordinates": [
                    252.0,
                    20.0
                ]
            },
            "properties": {
                "confidence": 0.5562888575712622,
                "lead_time_hrs": 72,
                "top_driver": "hgtprs",
                "ugrdprs": 0.013949548825621605,
                "vgrdprs": 0.013614380732178688,
                "vvelprs": 0.013693956658244133,
                "tmpprs": 0.013580736704170704,
                "rhprs": 0.01364449318498373,
                "hgtprs": 0.013985760509967804,
                "absvprs": 0.0139088099822402,
                "pressfc": 0.0009530006209388375,
                "capesfc": 0.0008055844809859991,
                "tmpsfc": 0.0007741349982097745,
                "landmask": 0.0009879800491034985
            }
        },
        {
            "type": "Feature",
            "geometry": {
                "type": "Point",
                "coordinates": [
                    50.0,
                    38.0
                ]
            },
            "properties": {
                "confidence": 0.49917767787134304,
                "lead_time_hrs": 72,
                "top_driver": "vgrdprs",
                "ugrdprs": 0.0225721076130867,
                "vgrdprs": 0.023958979174494743,
                "vvelprs": 0.02317540906369686,
                "tmpprs": 0.02115570567548275,
                "rhprs": 0.023130569607019424,
                "hgtprs": 0.021523619070649147,
                "absvprs": 0.020582837983965874,
                "pressfc": 0.00146118039265275,
                "capesfc": 0.001021485193632543,
                "tmpsfc": 0.001131274038925767,
                "landmask": 0.0011527775786817074
            }
        }
    ]
}