{
  "type": "FeatureCollection",
  "metadata": {
    "initialization_time_utc": "2026-07-27T00:00:00+00:00",
    "lead_time_hrs": 24,
    "threshold": 0.78,
    "source_product": "NCEP FNL native 1-degree analysis",
    "training_domain_note": "Model input uses native NCEP FNL fields. Post-class labels are rule-based diagnostics, not calibrated probabilities.",
    "channel_schema": [
      "ugrdprs_1000",
      "ugrdprs_975",
      "ugrdprs_950",
      "ugrdprs_925",
      "ugrdprs_900",
      "ugrdprs_850",
      "ugrdprs_800",
      "ugrdprs_750",
      "ugrdprs_700",
      "ugrdprs_650",
      "ugrdprs_600",
      "ugrdprs_550",
      "ugrdprs_500",
      "ugrdprs_450",
      "ugrdprs_400",
      "ugrdprs_350",
      "ugrdprs_300",
      "ugrdprs_250",
      "ugrdprs_200",
      "vgrdprs_1000",
      "vgrdprs_975",
      "vgrdprs_950",
      "vgrdprs_925",
      "vgrdprs_900",
      "vgrdprs_850",
      "vgrdprs_800",
      "vgrdprs_750",
      "vgrdprs_700",
      "vgrdprs_650",
      "vgrdprs_600",
      "vgrdprs_550",
      "vgrdprs_500",
      "vgrdprs_450",
      "vgrdprs_400",
      "vgrdprs_350",
      "vgrdprs_300",
      "vgrdprs_250",
      "vgrdprs_200",
      "vvelprs_1000",
      "vvelprs_975",
      "vvelprs_950",
      "vvelprs_925",
      "vvelprs_900",
      "vvelprs_850",
      "vvelprs_800",
      "vvelprs_750",
      "vvelprs_700",
      "vvelprs_650",
      "vvelprs_600",
      "vvelprs_550",
      "vvelprs_500",
      "vvelprs_450",
      "vvelprs_400",
      "vvelprs_350",
      "vvelprs_300",
      "vvelprs_250",
      "vvelprs_200",
      "tmpprs_1000",
      "tmpprs_975",
      "tmpprs_950",
      "tmpprs_925",
      "tmpprs_900",
      "tmpprs_850",
      "tmpprs_800",
      "tmpprs_750",
      "tmpprs_700",
      "tmpprs_650",
      "tmpprs_600",
      "tmpprs_550",
      "tmpprs_500",
      "tmpprs_450",
      "tmpprs_400",
      "tmpprs_350",
      "tmpprs_300",
      "tmpprs_250",
      "tmpprs_200",
      "rhprs_1000",
      "rhprs_975",
      "rhprs_950",
      "rhprs_925",
      "rhprs_900",
      "rhprs_850",
      "rhprs_800",
      "rhprs_750",
      "rhprs_700",
      "rhprs_650",
      "rhprs_600",
      "rhprs_550",
      "rhprs_500",
      "rhprs_450",
      "rhprs_400",
      "rhprs_350",
      "rhprs_300",
      "rhprs_250",
      "rhprs_200",
      "hgtprs_1000",
      "hgtprs_975",
      "hgtprs_950",
      "hgtprs_925",
      "hgtprs_900",
      "hgtprs_850",
      "hgtprs_800",
      "hgtprs_750",
      "hgtprs_700",
      "hgtprs_650",
      "hgtprs_600",
      "hgtprs_550",
      "hgtprs_500",
      "hgtprs_450",
      "hgtprs_400",
      "hgtprs_350",
      "hgtprs_300",
      "hgtprs_250",
      "hgtprs_200",
      "absvprs_1000",
      "absvprs_975",
      "absvprs_950",
      "absvprs_925",
      "absvprs_900",
      "absvprs_850",
      "absvprs_800",
      "absvprs_750",
      "absvprs_700",
      "absvprs_650",
      "absvprs_600",
      "absvprs_550",
      "absvprs_500",
      "absvprs_450",
      "absvprs_400",
      "absvprs_350",
      "absvprs_300",
      "absvprs_250",
      "absvprs_200",
      "pressfc",
      "capesfc",
      "tmpsfc",
      "landmask"
    ]
  },
  "features": [
    {
      "type": "Feature",
      "geometry": {
        "type": "Point",
        "coordinates": [
          90.0,
          22.0
        ]
      },
      "properties": {
        "confidence": 0.9974675178527832,
        "confidence_percent": 99.75,
        "raw_model_score": 0.9974675178527832,
        "raw_model_score_percent": 99.75,
        "real_world_confidence": 0.3076923076923077,
        "real_world_confidence_percent": 30.77,
        "real_world_confidence_basis": "Empirical precision from strict 2026 FNL verification (16 hits / 52 retained disturbances). Retrospective reference rate, not a calibrated per-storm probability.",
        "empirical_pod_reference": 0.5,
        "empirical_csi_reference": 0.23529411764705882,
        "lead_time_hrs": 24,
        "validation_threshold": 0.78,
        "top_driver": "pressfc",
        "xai_method": "mean_absolute_input_gradient",
        "source_product": "NCEP FNL native 1-degree analysis",
        "initialization_time_utc": "2026-07-27T00:00:00+00:00",
        "system_class": "NEW_GENESIS_CANDIDATE",
        "classification_confidence": 0.88,
        "classification_confidence_percent": 88.0,
        "classification_reason": "Matched recent invest/disturbance TROPICAL (DB) within 258 km and 4/6 environmental checks passed.",
        "land_fraction": 0.6916099786758423,
        "pressure_anomaly_pa": 10725.8125,
        "midlevel_rh_percent": 97.63333638509114,
        "shear_200_850_ms": 4.895310402833953,
        "vorticity_850_s1": 0.00021546558127738535,
        "surface_temperature_k": 300.61761474609375,
        "matched_system_name": "TROPICAL",
        "matched_system_status": "DB",
        "matched_system_distance_km": 258.0,
        "matched_system_age_hours": 24.5,
        "cnn_confidence": 0.9850199222564697,
        "vit_confidence": 0.9808552861213684,
        "xai_mean_ugrdprs": 0.09013459610022619,
        "xai_mean_vgrdprs": 0.08754283543388197,
        "xai_mean_vvelprs": 0.07984411260082738,
        "xai_mean_tmpprs": 0.08460666218442858,
        "xai_mean_rhprs": 0.09150928164820675,
        "xai_mean_hgtprs": 0.08116885293373992,
        "xai_mean_absvprs": 0.08428773016143506,
        "xai_mean_pressfc": 0.12138916724152847,
        "xai_mean_capesfc": 0.07984843192550117,
        "xai_mean_tmpsfc": 0.10357661092185405,
        "xai_mean_landmask": 0.09609171884837046,
        "xai_column_total_ugrdprs": 0.14533281976545434,
        "xai_column_total_vgrdprs": 0.14115387078810432,
        "xai_column_total_vvelprs": 0.1287404665074091,
        "xai_column_total_tmpprs": 0.13641958471080493,
        "xai_column_total_rhprs": 0.14754935432411576,
        "xai_column_total_hgtprs": 0.1308764701018799,
        "xai_column_total_absvprs": 0.13590533885907166,
        "xai_column_total_pressfc": 0.010301453470419447,
        "xai_column_total_capesfc": 0.006776180485115814,
        "xai_column_total_tmpsfc": 0.00878982583274688,
        "xai_column_total_landmask": 0.008154635154877857
      }
    },
    {
      "type": "Feature",
      "geometry": {
        "type": "Point",
        "coordinates": [
          114.0,
          22.0
        ]
      },
      "properties": {
        "confidence": 0.9966999888420105,
        "confidence_percent": 99.67,
        "raw_model_score": 0.9966999888420105,
        "raw_model_score_percent": 99.67,
        "real_world_confidence": 0.3076923076923077,
        "real_world_confidence_percent": 30.77,
        "real_world_confidence_basis": "Empirical precision from strict 2026 FNL verification (16 hits / 52 retained disturbances). Retrospective reference rate, not a calibrated per-storm probability.",
        "empirical_pod_reference": 0.5,
        "empirical_csi_reference": 0.23529411764705882,
        "lead_time_hrs": 24,
        "validation_threshold": 0.78,
        "top_driver": "pressfc",
        "xai_method": "mean_absolute_input_gradient",
        "source_product": "NCEP FNL native 1-degree analysis",
        "initialization_time_utc": "2026-07-27T00:00:00+00:00",
        "system_class": "ACTIVE_CYCLONE",
        "classification_confidence": 0.95,
        "classification_confidence_percent": 95.0,
        "classification_reason": "Within 94 km of active tracked system NOUL (TC); track age 24.5 h.",
        "land_fraction": 0.5283446907997131,
        "pressure_anomaly_pa": 2670.0859375,
        "midlevel_rh_percent": 95.86666615804036,
        "shear_200_850_ms": 10.298700226640593,
        "vorticity_850_s1": 2.6465575501788408e-05,
        "surface_temperature_k": 301.61761474609375,
        "matched_system_name": "NOUL",
        "matched_system_status": "TC",
        "matched_system_distance_km": 94.2,
        "matched_system_age_hours": 24.5,
        "cnn_confidence": 0.9532676935195923,
        "vit_confidence": 0.9853120446205139,
        "xai_mean_ugrdprs": 0.09317170509183514,
        "xai_mean_vgrdprs": 0.08845729078175107,
        "xai_mean_vvelprs": 0.08346693557180121,
        "xai_mean_tmpprs": 0.08600265287862804,
        "xai_mean_rhprs": 0.09368466318255175,
        "xai_mean_hgtprs": 0.08032245646224492,
        "xai_mean_absvprs": 0.08453128956007522,
        "xai_mean_pressfc": 0.11284705470765218,
        "xai_mean_capesfc": 0.08644488275438211,
        "xai_mean_tmpsfc": 0.10235051495691556,
        "xai_mean_landmask": 0.08872055405216278,
        "xai_column_total_ugrdprs": 0.14784878515466576,
        "xai_column_total_vgrdprs": 0.14036775507486773,
        "xai_column_total_vvelprs": 0.13244884727166273,
        "xai_column_total_tmpprs": 0.13647263158808826,
        "xai_column_total_rhprs": 0.1486627680560333,
        "xai_column_total_hgtprs": 0.12745905407126376,
        "xai_column_total_absvprs": 0.13413781825903118,
        "xai_column_total_pressfc": 0.009424761167847233,
        "xai_column_total_capesfc": 0.007219704371135538,
        "xai_column_total_tmpsfc": 0.008548111081623946,
        "xai_column_total_landmask": 0.007409763903780595
      }
    },
    {
      "type": "Feature",
      "geometry": {
        "type": "Point",
        "coordinates": [
          -30.0,
          12.0
        ]
      },
      "properties": {
        "confidence": 0.9962413311004639,
        "confidence_percent": 99.62,
        "raw_model_score": 0.9962413311004639,
        "raw_model_score_percent": 99.62,
        "real_world_confidence": 0.3076923076923077,
        "real_world_confidence_percent": 30.77,
        "real_world_confidence_basis": "Empirical precision from strict 2026 FNL verification (16 hits / 52 retained disturbances). Retrospective reference rate, not a calibrated per-storm probability.",
        "empirical_pod_reference": 0.5,
        "empirical_csi_reference": 0.23529411764705882,
        "lead_time_hrs": 24,
        "validation_threshold": 0.78,
        "top_driver": "pressfc",
        "xai_method": "mean_absolute_input_gradient",
        "source_product": "NCEP FNL native 1-degree analysis",
        "initialization_time_utc": "2026-07-27T00:00:00+00:00",
        "system_class": "UNVERIFIED_ENVIRONMENTAL_SIGNAL",
        "classification_confidence": 0.6,
        "classification_confidence_percent": 60.0,
        "classification_reason": "6/6 favorable environmental checks passed, but no recent official active-system or invest position matched this hotspot. It is not labelled as new genesis until externally confirmed.",
        "land_fraction": 0.0,
        "pressure_anomaly_pa": -156.7109375,
        "midlevel_rh_percent": 75.1999994913737,
        "shear_200_850_ms": 9.569553798294443,
        "vorticity_850_s1": 7.546557799287257e-05,
        "surface_temperature_k": 300.11761474609375,
        "cnn_confidence": 0.9455352425575256,
        "vit_confidence": 0.9727014899253845,
        "xai_mean_ugrdprs": 0.09732430986808137,
        "xai_mean_vgrdprs": 0.08801589217210326,
        "xai_mean_vvelprs": 0.08284904116494088,
        "xai_mean_tmpprs": 0.08155218266369342,
        "xai_mean_rhprs": 0.08572223438299806,
        "xai_mean_hgtprs": 0.07454867770266944,
        "xai_mean_absvprs": 0.09170717263733393,
        "xai_mean_pressfc": 0.110762774138145,
        "xai_mean_capesfc": 0.07959865405225693,
        "xai_mean_tmpsfc": 0.09722458279816115,
        "xai_mean_landmask": 0.11069447841961656,
        "xai_column_total_ugrdprs": 0.15629866844283474,
        "xai_column_total_vgrdprs": 0.14134974696046881,
        "xai_column_total_vvelprs": 0.1330520044058515,
        "xai_column_total_tmpprs": 0.13096930678208377,
        "xai_column_total_rhprs": 0.13766622845837426,
        "xai_column_total_hgtprs": 0.11972197776587043,
        "xai_column_total_absvprs": 0.14727778403613798,
        "xai_column_total_pressfc": 0.009362119134751247,
        "xai_column_total_capesfc": 0.0067280012441151,
        "xai_column_total_tmpsfc": 0.008217816266028343,
        "xai_column_total_landmask": 0.00935634650348382
      }
    },
    {
      "type": "Feature",
      "geometry": {
        "type": "Point",
        "coordinates": [
          132.0,
          11.0
        ]
      },
      "properties": {
        "confidence": 0.9960076808929443,
        "confidence_percent": 99.6,
        "raw_model_score": 0.9960076808929443,
        "raw_model_score_percent": 99.6,
        "real_world_confidence": 0.3076923076923077,
        "real_world_confidence_percent": 30.77,
        "real_world_confidence_basis": "Empirical precision from strict 2026 FNL verification (16 hits / 52 retained disturbances). Retrospective reference rate, not a calibrated per-storm probability.",
        "empirical_pod_reference": 0.5,
        "empirical_csi_reference": 0.23529411764705882,
        "lead_time_hrs": 24,
        "validation_threshold": 0.78,
        "top_driver": "pressfc",
        "xai_method": "mean_absolute_input_gradient",
        "source_product": "NCEP FNL native 1-degree analysis",
        "initialization_time_utc": "2026-07-27T00:00:00+00:00",
        "system_class": "UNVERIFIED_ENVIRONMENTAL_SIGNAL",
        "classification_confidence": 0.6,
        "classification_confidence_percent": 60.0,
        "classification_reason": "5/6 favorable environmental checks passed, but no recent official active-system or invest position matched this hotspot. It is not labelled as new genesis until externally confirmed.",
        "land_fraction": 0.03628117963671684,
        "pressure_anomaly_pa": 108.3984375,
        "midlevel_rh_percent": 92.8000005086263,
        "shear_200_850_ms": 7.344035955122499,
        "vorticity_850_s1": 5.446557770483196e-05,
        "surface_temperature_k": 302.11761474609375,
        "cnn_confidence": 0.9171428680419922,
        "vit_confidence": 0.9760788679122925,
        "xai_mean_ugrdprs": 0.08783660370694103,
        "xai_mean_vgrdprs": 0.08502173675976714,
        "xai_mean_vvelprs": 0.08430080135290605,
        "xai_mean_tmpprs": 0.08433273548116599,
        "xai_mean_rhprs": 0.08648396564517237,
        "xai_mean_hgtprs": 0.08323763221957335,
        "xai_mean_absvprs": 0.08923441383694923,
        "xai_mean_pressfc": 0.11779634177708245,
        "xai_mean_capesfc": 0.08623065826090197,
        "xai_mean_tmpsfc": 0.091452508840986,
        "xai_mean_landmask": 0.10407260211855442,
        "xai_column_total_ugrdprs": 0.1413352603730117,
        "xai_column_total_vgrdprs": 0.1368059341960844,
        "xai_column_total_vvelprs": 0.1356459012226401,
        "xai_column_total_tmpprs": 0.13569728591363708,
        "xai_column_total_rhprs": 0.13915876474462766,
        "xai_column_total_hgtprs": 0.13393518931064757,
        "xai_column_total_absvprs": 0.14358443486863992,
        "xai_column_total_pressfc": 0.009975924856937043,
        "xai_column_total_capesfc": 0.00730269339605532,
        "xai_column_total_tmpsfc": 0.007744920957753728,
        "xai_column_total_landmask": 0.00881369015996551
      }
    },
    {
      "type": "Feature",
      "geometry": {
        "type": "Point",
        "coordinates": [
          175.0,
          12.0
        ]
      },
      "properties": {
        "confidence": 0.99396812915802,
        "confidence_percent": 99.4,
        "raw_model_score": 0.99396812915802,
        "raw_model_score_percent": 99.4,
        "real_world_confidence": 0.3076923076923077,
        "real_world_confidence_percent": 30.77,
        "real_world_confidence_basis": "Empirical precision from strict 2026 FNL verification (16 hits / 52 retained disturbances). Retrospective reference rate, not a calibrated per-storm probability.",
        "empirical_pod_reference": 0.5,
        "empirical_csi_reference": 0.23529411764705882,
        "lead_time_hrs": 24,
        "validation_threshold": 0.78,
        "top_driver": "landmask",
        "xai_method": "mean_absolute_input_gradient",
        "source_product": "NCEP FNL native 1-degree analysis",
        "initialization_time_utc": "2026-07-27T00:00:00+00:00",
        "system_class": "ACTIVE_CYCLONE",
        "classification_confidence": 0.95,
        "classification_confidence_percent": 95.0,
        "classification_reason": "Within 267 km of active tracked system 12W (TD); track age 5.5 h.",
        "land_fraction": 0.0,
        "pressure_anomaly_pa": -244.109375,
        "midlevel_rh_percent": 81.83333079020183,
        "shear_200_850_ms": 8.591933424196244,
        "vorticity_850_s1": 4.046557660331018e-05,
        "surface_temperature_k": 302.11761474609375,
        "matched_system_name": "12W",
        "matched_system_status": "TD",
        "matched_system_distance_km": 267.0,
        "matched_system_age_hours": 5.5,
        "cnn_confidence": 0.9968833327293396,
        "vit_confidence": 0.9564201235771179,
        "xai_mean_ugrdprs": 0.08912548759822642,
        "xai_mean_vgrdprs": 0.08688551751041458,
        "xai_mean_vvelprs": 0.06670148259218173,
        "xai_mean_tmpprs": 0.07855956339644185,
        "xai_mean_rhprs": 0.09786730178920779,
        "xai_mean_hgtprs": 0.07787192224560213,
        "xai_mean_absvprs": 0.08492929945218745,
        "xai_mean_pressfc": 0.10271116852050019,
        "xai_mean_capesfc": 0.09380746734206293,
        "xai_mean_tmpsfc": 0.10574496261172432,
        "xai_mean_landmask": 0.11579582694145062,
        "xai_column_total_ugrdprs": 0.14757250563257776,
        "xai_column_total_vgrdprs": 0.14386360226741532,
        "xai_column_total_vvelprs": 0.11044321667094345,
        "xai_column_total_tmpprs": 0.13007762407439133,
        "xai_column_total_rhprs": 0.16204706323989304,
        "xai_column_total_hgtprs": 0.12893904129639194,
        "xai_column_total_absvprs": 0.1406245318561448,
        "xai_column_total_pressfc": 0.008950918662040525,
        "xai_column_total_capesfc": 0.00817499228336828,
        "xai_column_total_tmpsfc": 0.009215303193334278,
        "xai_column_total_landmask": 0.010091200823499284
      }
    }
  ]
}