{
    "type": "FeatureCollection",
    "features": [
        {
            "type": "Feature",
            "geometry": {
                "type": "Point",
                "coordinates": [
                    250.0,
                    20.0
                ]
            },
            "properties": {
                "confidence": 0.49206570712807196,
                "lead_time_hrs": 72,
                "top_driver": "tmpprs",
                "ugrdprs": 0.002317359670996666,
                "vgrdprs": 0.002174939727410674,
                "vvelprs": 0.0021406824234873056,
                "tmpprs": 0.002376528223976493,
                "rhprs": 0.00221224850974977,
                "hgtprs": 0.0023468388244509697,
                "absvprs": 0.0021726456470787525,
                "pressfc": 0.00012376000813674182,
                "capesfc": 0.00010777257557492703,
                "tmpsfc": 9.133621642831713e-05,
                "landmask": 0.00021667157125193626
            }
        },
        {
            "type": "Feature",
            "geometry": {
                "type": "Point",
                "coordinates": [
                    20.0,
                    34.0
                ]
            },
            "properties": {
                "confidence": 0.41648998662438336,
                "lead_time_hrs": 72,
                "top_driver": "vgrdprs",
                "ugrdprs": 0.014199302531778812,
                "vgrdprs": 0.014200283214449883,
                "vvelprs": 0.013274823315441608,
                "tmpprs": 0.012790322303771973,
                "rhprs": 0.012145246379077435,
                "hgtprs": 0.013288184069097042,
                "absvprs": 0.013556509278714657,
                "pressfc": 0.0008889780147001147,
                "capesfc": 0.0005862163961865008,
                "tmpsfc": 0.0007131503080017865,
                "landmask": 0.0008124896558001637
            }
        }
    ]
}