{
    "type": "FeatureCollection",
    "features": [
        {
            "type": "Feature",
            "geometry": {
                "type": "Point",
                "coordinates": [
                    252.0,
                    22.0
                ]
            },
            "properties": {
                "confidence": 0.36848622810276455,
                "lead_time_hrs": 48,
                "top_driver": "tmpprs",
                "ugrdprs": 0.012790785171091557,
                "vgrdprs": 0.01209691260010004,
                "vvelprs": 0.012140033766627312,
                "tmpprs": 0.012874345295131207,
                "rhprs": 0.01212528720498085,
                "hgtprs": 0.011707527562975883,
                "absvprs": 0.011663439683616161,
                "pressfc": 0.000761136703658849,
                "capesfc": 0.000589171308092773,
                "tmpsfc": 0.0006461290759034455,
                "landmask": 0.0006441052537411451
            }
        },
        {
            "type": "Feature",
            "geometry": {
                "type": "Point",
                "coordinates": [
                    264.0,
                    24.0
                ]
            },
            "properties": {
                "confidence": 0.32868987332619193,
                "lead_time_hrs": 48,
                "top_driver": "ugrdprs",
                "ugrdprs": 0.014718634076416492,
                "vgrdprs": 0.013290264643728733,
                "vvelprs": 0.014405124820768833,
                "tmpprs": 0.013003315776586533,
                "rhprs": 0.01397695578634739,
                "hgtprs": 0.013739299960434437,
                "absvprs": 0.01346425712108612,
                "pressfc": 0.0008835300686769187,
                "capesfc": 0.0006159406038932502,
                "tmpsfc": 0.0006587677053175867,
                "landmask": 0.0008446989813819528
            }
        }
    ]
}