{
  "type": "FeatureCollection",
  "metadata": {
    "initialization_time_utc": "2026-07-28T00:00:00+00:00",
    "lead_time_hrs": 24,
    "threshold": 0.75,
    "source_product": "NCEP FNL native 1-degree analysis",
    "training_domain_note": "Model input uses native NCEP FNL fields. Post-classification uses the validated learned XAI/environment classifier when available, with active-system and deterministic environmental fallback logic. Classification scores are model outputs, not official warning probabilities.",
    "channel_schema": [
      "ugrdprs_1000",
      "ugrdprs_975",
      "ugrdprs_950",
      "ugrdprs_925",
      "ugrdprs_900",
      "ugrdprs_850",
      "ugrdprs_800",
      "ugrdprs_750",
      "ugrdprs_700",
      "ugrdprs_650",
      "ugrdprs_600",
      "ugrdprs_550",
      "ugrdprs_500",
      "ugrdprs_450",
      "ugrdprs_400",
      "ugrdprs_350",
      "ugrdprs_300",
      "ugrdprs_250",
      "ugrdprs_200",
      "vgrdprs_1000",
      "vgrdprs_975",
      "vgrdprs_950",
      "vgrdprs_925",
      "vgrdprs_900",
      "vgrdprs_850",
      "vgrdprs_800",
      "vgrdprs_750",
      "vgrdprs_700",
      "vgrdprs_650",
      "vgrdprs_600",
      "vgrdprs_550",
      "vgrdprs_500",
      "vgrdprs_450",
      "vgrdprs_400",
      "vgrdprs_350",
      "vgrdprs_300",
      "vgrdprs_250",
      "vgrdprs_200",
      "vvelprs_1000",
      "vvelprs_975",
      "vvelprs_950",
      "vvelprs_925",
      "vvelprs_900",
      "vvelprs_850",
      "vvelprs_800",
      "vvelprs_750",
      "vvelprs_700",
      "vvelprs_650",
      "vvelprs_600",
      "vvelprs_550",
      "vvelprs_500",
      "vvelprs_450",
      "vvelprs_400",
      "vvelprs_350",
      "vvelprs_300",
      "vvelprs_250",
      "vvelprs_200",
      "tmpprs_1000",
      "tmpprs_975",
      "tmpprs_950",
      "tmpprs_925",
      "tmpprs_900",
      "tmpprs_850",
      "tmpprs_800",
      "tmpprs_750",
      "tmpprs_700",
      "tmpprs_650",
      "tmpprs_600",
      "tmpprs_550",
      "tmpprs_500",
      "tmpprs_450",
      "tmpprs_400",
      "tmpprs_350",
      "tmpprs_300",
      "tmpprs_250",
      "tmpprs_200",
      "rhprs_1000",
      "rhprs_975",
      "rhprs_950",
      "rhprs_925",
      "rhprs_900",
      "rhprs_850",
      "rhprs_800",
      "rhprs_750",
      "rhprs_700",
      "rhprs_650",
      "rhprs_600",
      "rhprs_550",
      "rhprs_500",
      "rhprs_450",
      "rhprs_400",
      "rhprs_350",
      "rhprs_300",
      "rhprs_250",
      "rhprs_200",
      "hgtprs_1000",
      "hgtprs_975",
      "hgtprs_950",
      "hgtprs_925",
      "hgtprs_900",
      "hgtprs_850",
      "hgtprs_800",
      "hgtprs_750",
      "hgtprs_700",
      "hgtprs_650",
      "hgtprs_600",
      "hgtprs_550",
      "hgtprs_500",
      "hgtprs_450",
      "hgtprs_400",
      "hgtprs_350",
      "hgtprs_300",
      "hgtprs_250",
      "hgtprs_200",
      "absvprs_1000",
      "absvprs_975",
      "absvprs_950",
      "absvprs_925",
      "absvprs_900",
      "absvprs_850",
      "absvprs_800",
      "absvprs_750",
      "absvprs_700",
      "absvprs_650",
      "absvprs_600",
      "absvprs_550",
      "absvprs_500",
      "absvprs_450",
      "absvprs_400",
      "absvprs_350",
      "absvprs_300",
      "absvprs_250",
      "absvprs_200",
      "pressfc",
      "capesfc",
      "tmpsfc",
      "landmask"
    ]
  },
  "features": [
    {
      "type": "Feature",
      "geometry": {
        "type": "Point",
        "coordinates": [
          112.0,
          20.0
        ]
      },
      "properties": {
        "confidence": 0.9979363679885864,
        "confidence_percent": 99.79,
        "raw_model_score": 0.9979363679885864,
        "raw_model_score_percent": 99.79,
        "lead_time_hrs": 24,
        "validation_threshold": 0.75,
        "top_driver": "pressfc",
        "xai_method": "mean_absolute_input_gradient",
        "source_product": "NCEP FNL native 1-degree analysis",
        "initialization_time_utc": "2026-07-28T00:00:00+00:00",
        "system_class": "RECENT_TRACKED_CYCLONE",
        "classification_confidence": 0.82,
        "classification_confidence_percent": 82.0,
        "classification_reason": "Near the latest available track of NOUL (TC), but the position is 48.5 h old; current lifecycle cannot be determined from this stale fix.",
        "land_fraction": 0.5442177057266235,
        "pressure_anomaly_pa": 3333.265625,
        "midlevel_rh_percent": 72.93333307902019,
        "shear_200_850_ms": 12.843437149796044,
        "vorticity_850_s1": 7.692920189583674e-05,
        "surface_temperature_k": 301.90380859375,
        "matched_system_name": "NOUL",
        "matched_system_status": "TC",
        "matched_system_distance_km": 391.9,
        "matched_system_age_hours": 48.5,
        "cnn_confidence": 0.9765400290489197,
        "vit_confidence": 0.9930292963981628,
        "xai_mean_ugrdprs": 0.09143090961117145,
        "xai_mean_vgrdprs": 0.08916498644717633,
        "xai_mean_vvelprs": 0.08775174802378255,
        "xai_mean_tmpprs": 0.08988603841138121,
        "xai_mean_rhprs": 0.08946902052649759,
        "xai_mean_hgtprs": 0.0878817105812151,
        "xai_mean_absvprs": 0.09009946853469884,
        "xai_mean_pressfc": 0.09879944932013114,
        "xai_mean_capesfc": 0.09173358799328175,
        "xai_mean_tmpsfc": 0.08748505526844028,
        "xai_mean_landmask": 0.09629802528222375,
        "xai_column_total_ugrdprs": 0.14166885111336458,
        "xai_column_total_vgrdprs": 0.13815788089671857,
        "xai_column_total_vvelprs": 0.13596811665091701,
        "xai_column_total_tmpprs": 0.139275122281781,
        "xai_column_total_rhprs": 0.13862896790817336,
        "xai_column_total_hgtprs": 0.13616949152468918,
        "xai_column_total_absvprs": 0.13960582709029692,
        "xai_column_total_pressfc": 0.008057164542266189,
        "xai_column_total_capesfc": 0.0074809385841761505,
        "xai_column_total_tmpsfc": 0.007134467753996377,
        "xai_column_total_landmask": 0.007853171653620674
      }
    },
    {
      "type": "Feature",
      "geometry": {
        "type": "Point",
        "coordinates": [
          125.0,
          13.0
        ]
      },
      "properties": {
        "confidence": 0.9979332685470581,
        "confidence_percent": 99.79,
        "raw_model_score": 0.9979332685470581,
        "raw_model_score_percent": 99.79,
        "lead_time_hrs": 24,
        "validation_threshold": 0.75,
        "top_driver": "pressfc",
        "xai_method": "mean_absolute_input_gradient",
        "source_product": "NCEP FNL native 1-degree analysis",
        "initialization_time_utc": "2026-07-28T00:00:00+00:00",
        "system_class": "HIGH_PRIORITY_MODEL_GENESIS_CANDIDATE",
        "classification_confidence": 0.701318752846323,
        "classification_confidence_percent": 70.13,
        "classification_reason": "Validated learned XAI/environment classifier produced 70.1%, above the high-priority threshold 40.0%; no official track match is currently available.",
        "land_fraction": 0.09070295095443726,
        "pressure_anomaly_pa": 360.375,
        "midlevel_rh_percent": 91.10000101725261,
        "shear_200_850_ms": 5.495660219914835,
        "vorticity_850_s1": 2.992919871758204e-05,
        "surface_temperature_k": 302.5037841796875,
        "cnn_confidence": 0.9804950952529907,
        "vit_confidence": 0.9837783575057983,
        "xai_mean_ugrdprs": 0.08789596153940765,
        "xai_mean_vgrdprs": 0.08571416955811573,
        "xai_mean_vvelprs": 0.0832158407615031,
        "xai_mean_tmpprs": 0.08513300180942923,
        "xai_mean_rhprs": 0.08356764594834937,
        "xai_mean_hgtprs": 0.08119404395060727,
        "xai_mean_absvprs": 0.0899564317767676,
        "xai_mean_pressfc": 0.11923283360940937,
        "xai_mean_capesfc": 0.08125091200337123,
        "xai_mean_tmpsfc": 0.08927516025994069,
        "xai_mean_landmask": 0.1135639987830988,
        "xai_column_total_ugrdprs": 0.14224843409472954,
        "xai_column_total_vgrdprs": 0.13871747416957997,
        "xai_column_total_vvelprs": 0.13467424587938756,
        "xai_column_total_tmpprs": 0.13777692966711264,
        "xai_column_total_rhprs": 0.13524360451790204,
        "xai_column_total_hgtprs": 0.13140223171299853,
        "xai_column_total_absvprs": 0.1455830378290843,
        "xai_column_total_pressfc": 0.010155956286434226,
        "xai_column_total_capesfc": 0.006920750648620265,
        "xai_column_total_tmpsfc": 0.007604236162284886,
        "xai_column_total_landmask": 0.009673099031866028
      }
    },
    {
      "type": "Feature",
      "geometry": {
        "type": "Point",
        "coordinates": [
          90.0,
          20.0
        ]
      },
      "properties": {
        "confidence": 0.997474730014801,
        "confidence_percent": 99.75,
        "raw_model_score": 0.997474730014801,
        "raw_model_score_percent": 99.75,
        "lead_time_hrs": 24,
        "validation_threshold": 0.75,
        "top_driver": "pressfc",
        "xai_method": "mean_absolute_input_gradient",
        "source_product": "NCEP FNL native 1-degree analysis",
        "initialization_time_utc": "2026-07-28T00:00:00+00:00",
        "system_class": "MONSOON_OR_LAND_LOW",
        "classification_confidence": 0.72,
        "classification_confidence_percent": 72.0,
        "classification_reason": "Strong moist circulation with substantial land/coastal influence and no qualifying active/invest match.",
        "land_fraction": 0.600907027721405,
        "pressure_anomaly_pa": 6798.6484375,
        "midlevel_rh_percent": 87.1999994913737,
        "shear_200_850_ms": 16.364397939311125,
        "vorticity_850_s1": 0.00011792920486186631,
        "surface_temperature_k": 301.40380859375,
        "cnn_confidence": 0.9847204685211182,
        "vit_confidence": 0.990800678730011,
        "xai_mean_ugrdprs": 0.08953327426500811,
        "xai_mean_vgrdprs": 0.08891333587089832,
        "xai_mean_vvelprs": 0.08892938350506877,
        "xai_mean_tmpprs": 0.08842484462563943,
        "xai_mean_rhprs": 0.08998602878466348,
        "xai_mean_hgtprs": 0.0899660480613717,
        "xai_mean_absvprs": 0.09178689492182548,
        "xai_mean_pressfc": 0.09622606778325202,
        "xai_mean_capesfc": 0.08827984841827234,
        "xai_mean_tmpsfc": 0.09313847459386795,
        "xai_mean_landmask": 0.09481579917013239,
        "xai_column_total_ugrdprs": 0.13835161173980112,
        "xai_column_total_vgrdprs": 0.1373936542055727,
        "xai_column_total_vvelprs": 0.13741844417730964,
        "xai_column_total_tmpprs": 0.13663880623291094,
        "xai_column_total_rhprs": 0.13905122843492734,
        "xai_column_total_hgtprs": 0.13902035635593346,
        "xai_column_total_absvprs": 0.14183403353283297,
        "xai_column_total_pressfc": 0.007825982921562055,
        "xai_column_total_capesfc": 0.0071797237687783,
        "xai_column_total_tmpsfc": 0.00757487163617441,
        "xai_column_total_landmask": 0.007711286994197036
      }
    },
    {
      "type": "Feature",
      "geometry": {
        "type": "Point",
        "coordinates": [
          -37.0,
          11.0
        ]
      },
      "properties": {
        "confidence": 0.99004727602005,
        "confidence_percent": 99.0,
        "raw_model_score": 0.99004727602005,
        "raw_model_score_percent": 99.0,
        "lead_time_hrs": 24,
        "validation_threshold": 0.75,
        "top_driver": "tmpsfc",
        "xai_method": "mean_absolute_input_gradient",
        "source_product": "NCEP FNL native 1-degree analysis",
        "initialization_time_utc": "2026-07-28T00:00:00+00:00",
        "system_class": "HIGH_PRIORITY_MODEL_GENESIS_CANDIDATE",
        "classification_confidence": 0.6131479396581062,
        "classification_confidence_percent": 61.31,
        "classification_reason": "Validated learned XAI/environment classifier produced 61.3%, above the high-priority threshold 40.0%; no official track match is currently available.",
        "land_fraction": 0.0,
        "pressure_anomaly_pa": -127.296875,
        "midlevel_rh_percent": 61.56666564941406,
        "shear_200_850_ms": 16.776269358545182,
        "vorticity_850_s1": 8.929200703278184e-06,
        "surface_temperature_k": 300.1037902832031,
        "cnn_confidence": 0.6832455396652222,
        "vit_confidence": 0.9307695627212524,
        "xai_mean_ugrdprs": 0.0966399304958084,
        "xai_mean_vgrdprs": 0.08669482502425269,
        "xai_mean_vvelprs": 0.08562789637991798,
        "xai_mean_tmpprs": 0.08534563359076457,
        "xai_mean_rhprs": 0.08653135744548579,
        "xai_mean_hgtprs": 0.07766525477552383,
        "xai_mean_absvprs": 0.09403324142342542,
        "xai_mean_pressfc": 0.09025473491868964,
        "xai_mean_capesfc": 0.0898662477343505,
        "xai_mean_tmpsfc": 0.10438133112194371,
        "xai_mean_landmask": 0.10295954708983748,
        "xai_column_total_ugrdprs": 0.15268639284679708,
        "xai_column_total_vgrdprs": 0.13697360748175924,
        "xai_column_total_vvelprs": 0.13528791656062558,
        "xai_column_total_tmpprs": 0.1348419506120137,
        "xai_column_total_rhprs": 0.13671533442237632,
        "xai_column_total_hgtprs": 0.12270733162874907,
        "xai_column_total_absvprs": 0.14856794526373412,
        "xai_column_total_pressfc": 0.007505162797632321,
        "xai_column_total_capesfc": 0.007472858015330475,
        "xai_column_total_tmpsfc": 0.008679864649865912,
        "xai_column_total_landmask": 0.00856163572111614
      }
    },
    {
      "type": "Feature",
      "geometry": {
        "type": "Point",
        "coordinates": [
          85.0,
          19.0
        ]
      },
      "properties": {
        "confidence": 0.9854191541671753,
        "confidence_percent": 98.54,
        "raw_model_score": 0.9854191541671753,
        "raw_model_score_percent": 98.54,
        "lead_time_hrs": 24,
        "validation_threshold": 0.75,
        "top_driver": "pressfc",
        "xai_method": "mean_absolute_input_gradient",
        "source_product": "NCEP FNL native 1-degree analysis",
        "initialization_time_utc": "2026-07-28T00:00:00+00:00",
        "system_class": "MONSOON_OR_LAND_LOW",
        "classification_confidence": 0.72,
        "classification_confidence_percent": 72.0,
        "classification_reason": "Strong moist circulation with substantial land/coastal influence and no qualifying active/invest match.",
        "land_fraction": 0.600907027721405,
        "pressure_anomaly_pa": 3811.296875,
        "midlevel_rh_percent": 88.93333435058594,
        "shear_200_850_ms": 14.258885834720488,
        "vorticity_850_s1": 6.929200026206672e-06,
        "surface_temperature_k": 301.40380859375,
        "cnn_confidence": 0.9665587544441223,
        "vit_confidence": 0.9160516262054443,
        "xai_mean_ugrdprs": 0.09290522191467543,
        "xai_mean_vgrdprs": 0.08274817524333292,
        "xai_mean_vvelprs": 0.07583454269847792,
        "xai_mean_tmpprs": 0.08342147473192847,
        "xai_mean_rhprs": 0.08953052708495102,
        "xai_mean_hgtprs": 0.0772959607788903,
        "xai_mean_absvprs": 0.08070132341351524,
        "xai_mean_pressfc": 0.14497180928721817,
        "xai_mean_capesfc": 0.07304369448825201,
        "xai_mean_tmpsfc": 0.0989882676127342,
        "xai_mean_landmask": 0.10055900274602432,
        "xai_column_total_ugrdprs": 0.15371118251654153,
        "xai_column_total_vgrdprs": 0.13690639917387346,
        "xai_column_total_vvelprs": 0.1254678393222114,
        "xai_column_total_tmpprs": 0.1380203733642889,
        "xai_column_total_rhprs": 0.14812776455082355,
        "xai_column_total_hgtprs": 0.12788574073165296,
        "xai_column_total_absvprs": 0.13351989404799938,
        "xai_column_total_pressfc": 0.012623950701331117,
        "xai_column_total_capesfc": 0.0063605469421708066,
        "xai_column_total_tmpsfc": 0.008619765570267354,
        "xai_column_total_landmask": 0.008756543078839508
      }
    }
  ]
}