{
  "type": "FeatureCollection",
  "metadata": {
    "initialization_time_utc": "2026-07-29T00:00:00+00:00",
    "lead_time_hrs": 24,
    "threshold": 0.75,
    "source_product": "NCEP FNL native 1-degree analysis",
    "training_domain_note": "Model input uses native NCEP FNL fields. Post-classification uses the validated learned XAI/environment classifier when available, with active-system and deterministic environmental fallback logic. Classification scores are model outputs, not official warning probabilities.",
    "channel_schema": [
      "ugrdprs_1000",
      "ugrdprs_975",
      "ugrdprs_950",
      "ugrdprs_925",
      "ugrdprs_900",
      "ugrdprs_850",
      "ugrdprs_800",
      "ugrdprs_750",
      "ugrdprs_700",
      "ugrdprs_650",
      "ugrdprs_600",
      "ugrdprs_550",
      "ugrdprs_500",
      "ugrdprs_450",
      "ugrdprs_400",
      "ugrdprs_350",
      "ugrdprs_300",
      "ugrdprs_250",
      "ugrdprs_200",
      "vgrdprs_1000",
      "vgrdprs_975",
      "vgrdprs_950",
      "vgrdprs_925",
      "vgrdprs_900",
      "vgrdprs_850",
      "vgrdprs_800",
      "vgrdprs_750",
      "vgrdprs_700",
      "vgrdprs_650",
      "vgrdprs_600",
      "vgrdprs_550",
      "vgrdprs_500",
      "vgrdprs_450",
      "vgrdprs_400",
      "vgrdprs_350",
      "vgrdprs_300",
      "vgrdprs_250",
      "vgrdprs_200",
      "vvelprs_1000",
      "vvelprs_975",
      "vvelprs_950",
      "vvelprs_925",
      "vvelprs_900",
      "vvelprs_850",
      "vvelprs_800",
      "vvelprs_750",
      "vvelprs_700",
      "vvelprs_650",
      "vvelprs_600",
      "vvelprs_550",
      "vvelprs_500",
      "vvelprs_450",
      "vvelprs_400",
      "vvelprs_350",
      "vvelprs_300",
      "vvelprs_250",
      "vvelprs_200",
      "tmpprs_1000",
      "tmpprs_975",
      "tmpprs_950",
      "tmpprs_925",
      "tmpprs_900",
      "tmpprs_850",
      "tmpprs_800",
      "tmpprs_750",
      "tmpprs_700",
      "tmpprs_650",
      "tmpprs_600",
      "tmpprs_550",
      "tmpprs_500",
      "tmpprs_450",
      "tmpprs_400",
      "tmpprs_350",
      "tmpprs_300",
      "tmpprs_250",
      "tmpprs_200",
      "rhprs_1000",
      "rhprs_975",
      "rhprs_950",
      "rhprs_925",
      "rhprs_900",
      "rhprs_850",
      "rhprs_800",
      "rhprs_750",
      "rhprs_700",
      "rhprs_650",
      "rhprs_600",
      "rhprs_550",
      "rhprs_500",
      "rhprs_450",
      "rhprs_400",
      "rhprs_350",
      "rhprs_300",
      "rhprs_250",
      "rhprs_200",
      "hgtprs_1000",
      "hgtprs_975",
      "hgtprs_950",
      "hgtprs_925",
      "hgtprs_900",
      "hgtprs_850",
      "hgtprs_800",
      "hgtprs_750",
      "hgtprs_700",
      "hgtprs_650",
      "hgtprs_600",
      "hgtprs_550",
      "hgtprs_500",
      "hgtprs_450",
      "hgtprs_400",
      "hgtprs_350",
      "hgtprs_300",
      "hgtprs_250",
      "hgtprs_200",
      "absvprs_1000",
      "absvprs_975",
      "absvprs_950",
      "absvprs_925",
      "absvprs_900",
      "absvprs_850",
      "absvprs_800",
      "absvprs_750",
      "absvprs_700",
      "absvprs_650",
      "absvprs_600",
      "absvprs_550",
      "absvprs_500",
      "absvprs_450",
      "absvprs_400",
      "absvprs_350",
      "absvprs_300",
      "absvprs_250",
      "absvprs_200",
      "pressfc",
      "capesfc",
      "tmpsfc",
      "landmask"
    ]
  },
  "features": [
    {
      "type": "Feature",
      "geometry": {
        "type": "Point",
        "coordinates": [
          120.0,
          14.0
        ]
      },
      "properties": {
        "confidence": 0.9978147745132446,
        "confidence_percent": 99.78,
        "raw_model_score": 0.9978147745132446,
        "raw_model_score_percent": 99.78,
        "lead_time_hrs": 24,
        "validation_threshold": 0.75,
        "top_driver": "pressfc",
        "xai_method": "mean_absolute_input_gradient",
        "source_product": "NCEP FNL native 1-degree analysis",
        "initialization_time_utc": "2026-07-29T00:00:00+00:00",
        "system_class": "HIGH_PRIORITY_MODEL_GENESIS_CANDIDATE",
        "classification_confidence": 0.8004082662056964,
        "classification_confidence_percent": 80.04,
        "classification_reason": "Validated learned XAI/environment classifier produced 80.0%, above the high-priority threshold 40.0%; no official track match is currently available.",
        "land_fraction": 0.13151927292346954,
        "pressure_anomaly_pa": 441.171875,
        "midlevel_rh_percent": 93.03333282470703,
        "shear_200_850_ms": 7.827143401461126,
        "vorticity_850_s1": 8.374878234462813e-06,
        "surface_temperature_k": 301.80572509765625,
        "cnn_confidence": 0.9572519063949585,
        "vit_confidence": 0.9915376901626587,
        "xai_mean_ugrdprs": 0.09127305096100577,
        "xai_mean_vgrdprs": 0.08883308627068716,
        "xai_mean_vvelprs": 0.08836895565420033,
        "xai_mean_tmpprs": 0.0882204104861942,
        "xai_mean_rhprs": 0.08929237484792572,
        "xai_mean_hgtprs": 0.09002480547829261,
        "xai_mean_absvprs": 0.09088372011310036,
        "xai_mean_pressfc": 0.0999605625641033,
        "xai_mean_capesfc": 0.0834854333595578,
        "xai_mean_tmpsfc": 0.09466312986032281,
        "xai_mean_landmask": 0.09499447040460993,
        "xai_column_total_ugrdprs": 0.1411729814381285,
        "xai_column_total_vgrdprs": 0.13739905995968046,
        "xai_column_total_vvelprs": 0.13668118704496907,
        "xai_column_total_tmpprs": 0.1364514246760999,
        "xai_column_total_rhprs": 0.13810944528206112,
        "xai_column_total_hgtprs": 0.13924230225676765,
        "xai_column_total_absvprs": 0.14057079882267715,
        "xai_column_total_pressfc": 0.008137370579117825,
        "xai_column_total_capesfc": 0.006796199338807328,
        "xai_column_total_tmpsfc": 0.007706128778122999,
        "xai_column_total_landmask": 0.007733101823568014
      }
    },
    {
      "type": "Feature",
      "geometry": {
        "type": "Point",
        "coordinates": [
          134.0,
          13.0
        ]
      },
      "properties": {
        "confidence": 0.9976446032524109,
        "confidence_percent": 99.76,
        "raw_model_score": 0.9976446032524109,
        "raw_model_score_percent": 99.76,
        "lead_time_hrs": 24,
        "validation_threshold": 0.75,
        "top_driver": "ugrdprs",
        "xai_method": "mean_absolute_input_gradient",
        "source_product": "NCEP FNL native 1-degree analysis",
        "initialization_time_utc": "2026-07-29T00:00:00+00:00",
        "system_class": "HIGH_PRIORITY_MODEL_GENESIS_CANDIDATE",
        "classification_confidence": 0.7856620992477352,
        "classification_confidence_percent": 78.57,
        "classification_reason": "Validated learned XAI/environment classifier produced 78.6%, above the high-priority threshold 40.0%; no official track match is currently available.",
        "land_fraction": 0.020408162847161293,
        "pressure_anomaly_pa": 51.109375,
        "midlevel_rh_percent": 82.6999994913737,
        "shear_200_850_ms": 11.401432256584972,
        "vorticity_850_s1": 1.937487832037732e-05,
        "surface_temperature_k": 302.80572509765625,
        "cnn_confidence": 0.9954270124435425,
        "vit_confidence": 0.9808230996131897,
        "xai_mean_ugrdprs": 0.09598349257290188,
        "xai_mean_vgrdprs": 0.09349939363204397,
        "xai_mean_vvelprs": 0.08980412909110413,
        "xai_mean_tmpprs": 0.09093549079584712,
        "xai_mean_rhprs": 0.09082238987727423,
        "xai_mean_hgtprs": 0.08945401361580976,
        "xai_mean_absvprs": 0.09314727841252458,
        "xai_mean_pressfc": 0.09182019815119416,
        "xai_mean_capesfc": 0.09490627137927672,
        "xai_mean_tmpsfc": 0.0887874642546521,
        "xai_mean_landmask": 0.08083987821737133,
        "xai_column_total_ugrdprs": 0.14490225340877216,
        "xai_column_total_vgrdprs": 0.1411521148902755,
        "xai_column_total_vvelprs": 0.13557353145168288,
        "xai_column_total_tmpprs": 0.13728149621122168,
        "xai_column_total_rhprs": 0.13711075758790814,
        "xai_column_total_hgtprs": 0.13504497017378353,
        "xai_column_total_absvprs": 0.14062053875647149,
        "xai_column_total_pressfc": 0.007295637072004721,
        "xai_column_total_capesfc": 0.007540843145429294,
        "xai_column_total_tmpsfc": 0.007054669111897462,
        "xai_column_total_landmask": 0.006423188190553159
      }
    },
    {
      "type": "Feature",
      "geometry": {
        "type": "Point",
        "coordinates": [
          90.0,
          21.0
        ]
      },
      "properties": {
        "confidence": 0.9965079426765442,
        "confidence_percent": 99.65,
        "raw_model_score": 0.9965079426765442,
        "raw_model_score_percent": 99.65,
        "lead_time_hrs": 24,
        "validation_threshold": 0.75,
        "top_driver": "pressfc",
        "xai_method": "mean_absolute_input_gradient",
        "source_product": "NCEP FNL native 1-degree analysis",
        "initialization_time_utc": "2026-07-29T00:00:00+00:00",
        "system_class": "MONSOON_OR_LAND_LOW",
        "classification_confidence": 0.72,
        "classification_confidence_percent": 72.0,
        "classification_reason": "Strong moist circulation with substantial land/coastal influence and no qualifying active/invest match.",
        "land_fraction": 0.646258533000946,
        "pressure_anomaly_pa": 9036.2265625,
        "midlevel_rh_percent": 87.76666514078777,
        "shear_200_850_ms": 13.15740848342152,
        "vorticity_850_s1": 6.23748783254996e-05,
        "surface_temperature_k": 301.4057312011719,
        "cnn_confidence": 0.9702349901199341,
        "vit_confidence": 0.9867613315582275,
        "xai_mean_ugrdprs": 0.09331090995708695,
        "xai_mean_vgrdprs": 0.08849562624239823,
        "xai_mean_vvelprs": 0.0813001348623744,
        "xai_mean_tmpprs": 0.08450482583065538,
        "xai_mean_rhprs": 0.08663272476257379,
        "xai_mean_hgtprs": 0.077228651366458,
        "xai_mean_absvprs": 0.0882512935063632,
        "xai_mean_pressfc": 0.12151857937332418,
        "xai_mean_capesfc": 0.0772956578419233,
        "xai_mean_tmpsfc": 0.08845547903933396,
        "xai_mean_landmask": 0.11300611721750861,
        "xai_column_total_ugrdprs": 0.15030963023604746,
        "xai_column_total_vgrdprs": 0.14255294222773385,
        "xai_column_total_vvelprs": 0.1309620997625617,
        "xai_column_total_tmpprs": 0.1361243681526501,
        "xai_column_total_rhprs": 0.13955208422294849,
        "xai_column_total_hgtprs": 0.12440356030750446,
        "xai_column_total_absvprs": 0.14215935538736785,
        "xai_column_total_pressfc": 0.010302519582634477,
        "xai_column_total_capesfc": 0.006553236819223726,
        "xai_column_total_tmpsfc": 0.007499382478743029,
        "xai_column_total_landmask": 0.009580820822584811
      }
    },
    {
      "type": "Feature",
      "geometry": {
        "type": "Point",
        "coordinates": [
          138.0,
          10.0
        ]
      },
      "properties": {
        "confidence": 0.9929445385932922,
        "confidence_percent": 99.29,
        "raw_model_score": 0.9929445385932922,
        "raw_model_score_percent": 99.29,
        "lead_time_hrs": 24,
        "validation_threshold": 0.75,
        "top_driver": "pressfc",
        "xai_method": "mean_absolute_input_gradient",
        "source_product": "NCEP FNL native 1-degree analysis",
        "initialization_time_utc": "2026-07-29T00:00:00+00:00",
        "system_class": "HIGH_PRIORITY_MODEL_GENESIS_CANDIDATE",
        "classification_confidence": 0.45431863719931626,
        "classification_confidence_percent": 45.43,
        "classification_reason": "Validated learned XAI/environment classifier produced 45.4%, above the high-priority threshold 40.0%; no official track match is currently available.",
        "land_fraction": 0.0022675737272948027,
        "pressure_anomaly_pa": -15.734375,
        "midlevel_rh_percent": 97.53333282470703,
        "shear_200_850_ms": 10.615782250879562,
        "vorticity_850_s1": 0.00012337487714830786,
        "surface_temperature_k": 302.4057312011719,
        "cnn_confidence": 0.7796517014503479,
        "vit_confidence": 0.9901164174079895,
        "xai_mean_ugrdprs": 0.09171212760570452,
        "xai_mean_vgrdprs": 0.09160121197581424,
        "xai_mean_vvelprs": 0.09034745371535419,
        "xai_mean_tmpprs": 0.08899603358044406,
        "xai_mean_rhprs": 0.09090375535154205,
        "xai_mean_hgtprs": 0.09080070936150207,
        "xai_mean_absvprs": 0.09229378301371782,
        "xai_mean_pressfc": 0.09439840958353203,
        "xai_mean_capesfc": 0.08681313792288783,
        "xai_mean_tmpsfc": 0.09359723039384812,
        "xai_mean_landmask": 0.08853614749565306,
        "xai_column_total_ugrdprs": 0.1398522964650373,
        "xai_column_total_vgrdprs": 0.13968316179343612,
        "xai_column_total_vvelprs": 0.13777129251138573,
        "xai_column_total_tmpprs": 0.1357105089945737,
        "xai_column_total_rhprs": 0.1386196088844285,
        "xai_column_total_hgtprs": 0.1384624729523721,
        "xai_column_total_absvprs": 0.140739261217132,
        "xai_column_total_pressfc": 0.007576243185948993,
        "xai_column_total_capesfc": 0.0069674631971116275,
        "xai_column_total_tmpsfc": 0.007511942013891686,
        "xai_column_total_landmask": 0.007105748784682213
      }
    },
    {
      "type": "Feature",
      "geometry": {
        "type": "Point",
        "coordinates": [
          108.0,
          20.0
        ]
      },
      "properties": {
        "confidence": 0.9921093583106995,
        "confidence_percent": 99.21,
        "raw_model_score": 0.9921093583106995,
        "raw_model_score_percent": 99.21,
        "lead_time_hrs": 24,
        "validation_threshold": 0.75,
        "top_driver": "pressfc",
        "xai_method": "mean_absolute_input_gradient",
        "source_product": "NCEP FNL native 1-degree analysis",
        "initialization_time_utc": "2026-07-29T00:00:00+00:00",
        "system_class": "HIGH_PRIORITY_MODEL_GENESIS_CANDIDATE",
        "classification_confidence": 0.9555061622868306,
        "classification_confidence_percent": 95.55,
        "classification_reason": "Validated learned XAI/environment classifier produced 95.6%, above the high-priority threshold 40.0%; no official track match is currently available.",
        "land_fraction": 0.6553288102149963,
        "pressure_anomaly_pa": 5382.6875,
        "midlevel_rh_percent": 55.666666666666664,
        "shear_200_850_ms": 12.391316464685278,
        "vorticity_850_s1": 1.437487662769854e-05,
        "surface_temperature_k": 302.4057312011719,
        "cnn_confidence": 0.8163107633590698,
        "vit_confidence": 0.9567986726760864,
        "xai_mean_ugrdprs": 0.08333561441146024,
        "xai_mean_vgrdprs": 0.07933424616385909,
        "xai_mean_vvelprs": 0.06945385497727298,
        "xai_mean_tmpprs": 0.07855908013128568,
        "xai_mean_rhprs": 0.0775645162565548,
        "xai_mean_hgtprs": 0.06584573493077131,
        "xai_mean_absvprs": 0.07785521858575072,
        "xai_mean_pressfc": 0.1670642510193067,
        "xai_mean_capesfc": 0.05984865089631643,
        "xai_mean_tmpsfc": 0.09701552150273066,
        "xai_mean_landmask": 0.1441233111246914,
        "xai_column_total_ugrdprs": 0.14972731162602712,
        "xai_column_total_vgrdprs": 0.1425381444795405,
        "xai_column_total_vvelprs": 0.12478625315660148,
        "xai_column_total_tmpprs": 0.14114542022940288,
        "xai_column_total_rhprs": 0.13935851497489898,
        "xai_column_total_hgtprs": 0.1183036209526488,
        "xai_column_total_absvprs": 0.13988081078969455,
        "xai_column_total_pressfc": 0.015797935297825513,
        "xai_column_total_capesfc": 0.00565941012965658,
        "xai_column_total_tmpsfc": 0.009173984992204105,
        "xai_column_total_landmask": 0.013628593371499496
      }
    }
  ]
}