{
  "type": "FeatureCollection",
  "metadata": {
    "initialization_time_utc": "2026-07-28T18:00:00+00:00",
    "lead_time_hrs": 24,
    "threshold": 0.75,
    "source_product": "NCEP FNL native 1-degree analysis",
    "training_domain_note": "Model input uses native NCEP FNL fields. Post-classification uses the validated learned XAI/environment classifier when available, with active-system and deterministic environmental fallback logic. Classification scores are model outputs, not official warning probabilities.",
    "channel_schema": [
      "ugrdprs_1000",
      "ugrdprs_975",
      "ugrdprs_950",
      "ugrdprs_925",
      "ugrdprs_900",
      "ugrdprs_850",
      "ugrdprs_800",
      "ugrdprs_750",
      "ugrdprs_700",
      "ugrdprs_650",
      "ugrdprs_600",
      "ugrdprs_550",
      "ugrdprs_500",
      "ugrdprs_450",
      "ugrdprs_400",
      "ugrdprs_350",
      "ugrdprs_300",
      "ugrdprs_250",
      "ugrdprs_200",
      "vgrdprs_1000",
      "vgrdprs_975",
      "vgrdprs_950",
      "vgrdprs_925",
      "vgrdprs_900",
      "vgrdprs_850",
      "vgrdprs_800",
      "vgrdprs_750",
      "vgrdprs_700",
      "vgrdprs_650",
      "vgrdprs_600",
      "vgrdprs_550",
      "vgrdprs_500",
      "vgrdprs_450",
      "vgrdprs_400",
      "vgrdprs_350",
      "vgrdprs_300",
      "vgrdprs_250",
      "vgrdprs_200",
      "vvelprs_1000",
      "vvelprs_975",
      "vvelprs_950",
      "vvelprs_925",
      "vvelprs_900",
      "vvelprs_850",
      "vvelprs_800",
      "vvelprs_750",
      "vvelprs_700",
      "vvelprs_650",
      "vvelprs_600",
      "vvelprs_550",
      "vvelprs_500",
      "vvelprs_450",
      "vvelprs_400",
      "vvelprs_350",
      "vvelprs_300",
      "vvelprs_250",
      "vvelprs_200",
      "tmpprs_1000",
      "tmpprs_975",
      "tmpprs_950",
      "tmpprs_925",
      "tmpprs_900",
      "tmpprs_850",
      "tmpprs_800",
      "tmpprs_750",
      "tmpprs_700",
      "tmpprs_650",
      "tmpprs_600",
      "tmpprs_550",
      "tmpprs_500",
      "tmpprs_450",
      "tmpprs_400",
      "tmpprs_350",
      "tmpprs_300",
      "tmpprs_250",
      "tmpprs_200",
      "rhprs_1000",
      "rhprs_975",
      "rhprs_950",
      "rhprs_925",
      "rhprs_900",
      "rhprs_850",
      "rhprs_800",
      "rhprs_750",
      "rhprs_700",
      "rhprs_650",
      "rhprs_600",
      "rhprs_550",
      "rhprs_500",
      "rhprs_450",
      "rhprs_400",
      "rhprs_350",
      "rhprs_300",
      "rhprs_250",
      "rhprs_200",
      "hgtprs_1000",
      "hgtprs_975",
      "hgtprs_950",
      "hgtprs_925",
      "hgtprs_900",
      "hgtprs_850",
      "hgtprs_800",
      "hgtprs_750",
      "hgtprs_700",
      "hgtprs_650",
      "hgtprs_600",
      "hgtprs_550",
      "hgtprs_500",
      "hgtprs_450",
      "hgtprs_400",
      "hgtprs_350",
      "hgtprs_300",
      "hgtprs_250",
      "hgtprs_200",
      "absvprs_1000",
      "absvprs_975",
      "absvprs_950",
      "absvprs_925",
      "absvprs_900",
      "absvprs_850",
      "absvprs_800",
      "absvprs_750",
      "absvprs_700",
      "absvprs_650",
      "absvprs_600",
      "absvprs_550",
      "absvprs_500",
      "absvprs_450",
      "absvprs_400",
      "absvprs_350",
      "absvprs_300",
      "absvprs_250",
      "absvprs_200",
      "pressfc",
      "capesfc",
      "tmpsfc",
      "landmask"
    ]
  },
  "features": [
    {
      "type": "Feature",
      "geometry": {
        "type": "Point",
        "coordinates": [
          123.0,
          14.0
        ]
      },
      "properties": {
        "confidence": 0.9972443580627441,
        "confidence_percent": 99.72,
        "raw_model_score": 0.9972443580627441,
        "raw_model_score_percent": 99.72,
        "lead_time_hrs": 24,
        "validation_threshold": 0.75,
        "top_driver": "pressfc",
        "xai_method": "mean_absolute_input_gradient",
        "source_product": "NCEP FNL native 1-degree analysis",
        "initialization_time_utc": "2026-07-28T18:00:00+00:00",
        "system_class": "HIGH_PRIORITY_MODEL_GENESIS_CANDIDATE",
        "classification_confidence": 0.526698358630942,
        "classification_confidence_percent": 52.67,
        "classification_reason": "Validated learned XAI/environment classifier produced 52.7%, above the high-priority threshold 40.0%; no official track match is currently available.",
        "land_fraction": 0.10657596588134766,
        "pressure_anomaly_pa": -773.421875,
        "midlevel_rh_percent": 99.53333282470703,
        "shear_200_850_ms": 1.389688976239544,
        "vorticity_850_s1": 5.3113282774575055e-05,
        "surface_temperature_k": 299.88818359375,
        "cnn_confidence": 0.9024553894996643,
        "vit_confidence": 0.9907755255699158,
        "xai_mean_ugrdprs": 0.09200880966637646,
        "xai_mean_vgrdprs": 0.09060123657990396,
        "xai_mean_vvelprs": 0.08665850419582873,
        "xai_mean_tmpprs": 0.08532479939463447,
        "xai_mean_rhprs": 0.08971796883631718,
        "xai_mean_hgtprs": 0.08747862442823434,
        "xai_mean_absvprs": 0.09222481997421723,
        "xai_mean_pressfc": 0.10621891094174482,
        "xai_mean_capesfc": 0.08717211407931416,
        "xai_mean_tmpsfc": 0.09161122969569874,
        "xai_mean_landmask": 0.09098298220772989,
        "xai_column_total_ugrdprs": 0.14291443472507204,
        "xai_column_total_vgrdprs": 0.14072809706160355,
        "xai_column_total_vvelprs": 0.13460397747135094,
        "xai_column_total_tmpprs": 0.13253237299133988,
        "xai_column_total_rhprs": 0.13935614977248867,
        "xai_column_total_hgtprs": 0.13587783865001943,
        "xai_column_total_absvprs": 0.14324995892362155,
        "xai_column_total_pressfc": 0.008683502555854206,
        "xai_column_total_capesfc": 0.007126407799662803,
        "xai_column_total_tmpsfc": 0.007489309955774616,
        "xai_column_total_landmask": 0.007437950093212304
      }
    },
    {
      "type": "Feature",
      "geometry": {
        "type": "Point",
        "coordinates": [
          137.0,
          11.0
        ]
      },
      "properties": {
        "confidence": 0.9967581629753113,
        "confidence_percent": 99.68,
        "raw_model_score": 0.9967581629753113,
        "raw_model_score_percent": 99.68,
        "lead_time_hrs": 24,
        "validation_threshold": 0.75,
        "top_driver": "pressfc",
        "xai_method": "mean_absolute_input_gradient",
        "source_product": "NCEP FNL native 1-degree analysis",
        "initialization_time_utc": "2026-07-28T18:00:00+00:00",
        "system_class": "HIGH_PRIORITY_MODEL_GENESIS_CANDIDATE",
        "classification_confidence": 0.5598067157034667,
        "classification_confidence_percent": 55.98,
        "classification_reason": "Validated learned XAI/environment classifier produced 56.0%, above the high-priority threshold 40.0%; no official track match is currently available.",
        "land_fraction": 0.0022675737272948027,
        "pressure_anomaly_pa": -29.40625,
        "midlevel_rh_percent": 97.1999994913737,
        "shear_200_850_ms": 14.721965038647129,
        "vorticity_850_s1": 4.911328142043203e-05,
        "surface_temperature_k": 302.58819580078125,
        "cnn_confidence": 0.9871469736099243,
        "vit_confidence": 0.9879158735275269,
        "xai_mean_ugrdprs": 0.08904528625899057,
        "xai_mean_vgrdprs": 0.09121288446286178,
        "xai_mean_vvelprs": 0.08344758950166095,
        "xai_mean_tmpprs": 0.08398456161147876,
        "xai_mean_rhprs": 0.09115602961038295,
        "xai_mean_hgtprs": 0.08408840098276879,
        "xai_mean_absvprs": 0.08587121686782545,
        "xai_mean_pressfc": 0.11473981673750862,
        "xai_mean_capesfc": 0.0925751264810329,
        "xai_mean_tmpsfc": 0.09086676146595778,
        "xai_mean_landmask": 0.09301232601953145,
        "xai_column_total_ugrdprs": 0.14147755510995094,
        "xai_column_total_vgrdprs": 0.14492149636072754,
        "xai_column_total_vvelprs": 0.1325837913360442,
        "xai_column_total_tmpprs": 0.13343694560039782,
        "xai_column_total_rhprs": 0.14483116228250983,
        "xai_column_total_hgtprs": 0.13360192685218483,
        "xai_column_total_absvprs": 0.13643450882644065,
        "xai_column_total_pressfc": 0.009594827626475289,
        "xai_column_total_capesfc": 0.0077413613368121316,
        "xai_column_total_tmpsfc": 0.0075985036235194075,
        "xai_column_total_landmask": 0.007777921044937382
      }
    },
    {
      "type": "Feature",
      "geometry": {
        "type": "Point",
        "coordinates": [
          90.0,
          20.0
        ]
      },
      "properties": {
        "confidence": 0.9967432618141174,
        "confidence_percent": 99.67,
        "raw_model_score": 0.9967432618141174,
        "raw_model_score_percent": 99.67,
        "lead_time_hrs": 24,
        "validation_threshold": 0.75,
        "top_driver": "pressfc",
        "xai_method": "mean_absolute_input_gradient",
        "source_product": "NCEP FNL native 1-degree analysis",
        "initialization_time_utc": "2026-07-28T18:00:00+00:00",
        "system_class": "MONSOON_OR_LAND_LOW",
        "classification_confidence": 0.72,
        "classification_confidence_percent": 72.0,
        "classification_reason": "Strong moist circulation with substantial land/coastal influence and no qualifying active/invest match.",
        "land_fraction": 0.600907027721405,
        "pressure_anomaly_pa": 6978.03125,
        "midlevel_rh_percent": 82.63333129882812,
        "shear_200_850_ms": 12.609378216522106,
        "vorticity_850_s1": 6.3113278883975e-05,
        "surface_temperature_k": 301.2881774902344,
        "cnn_confidence": 0.9543725252151489,
        "vit_confidence": 0.9859383702278137,
        "xai_mean_ugrdprs": 0.09068438741038994,
        "xai_mean_vgrdprs": 0.08849027099333566,
        "xai_mean_vvelprs": 0.08754033045144169,
        "xai_mean_tmpprs": 0.08738119747360347,
        "xai_mean_rhprs": 0.08970346373632214,
        "xai_mean_hgtprs": 0.08857774326733978,
        "xai_mean_absvprs": 0.08967289829368838,
        "xai_mean_pressfc": 0.09923092172372712,
        "xai_mean_capesfc": 0.0924190318595122,
        "xai_mean_tmpsfc": 0.09768512684214056,
        "xai_mean_landmask": 0.0886146279484991,
        "xai_column_total_ugrdprs": 0.14126562298274123,
        "xai_column_total_vgrdprs": 0.1378476800134451,
        "xai_column_total_vvelprs": 0.1363678929028216,
        "xai_column_total_tmpprs": 0.13611999941994693,
        "xai_column_total_rhprs": 0.13973756513402644,
        "xai_column_total_hgtprs": 0.13798394630978897,
        "xai_column_total_absvprs": 0.13968994837517693,
        "xai_column_total_pressfc": 0.008135745905618517,
        "xai_column_total_capesfc": 0.007577252604240068,
        "xai_column_total_tmpsfc": 0.008009009257804161,
        "xai_column_total_landmask": 0.007265337094390047
      }
    },
    {
      "type": "Feature",
      "geometry": {
        "type": "Point",
        "coordinates": [
          118.0,
          15.0
        ]
      },
      "properties": {
        "confidence": 0.9954410791397095,
        "confidence_percent": 99.54,
        "raw_model_score": 0.9954410791397095,
        "raw_model_score_percent": 99.54,
        "lead_time_hrs": 24,
        "validation_threshold": 0.75,
        "top_driver": "pressfc",
        "xai_method": "mean_absolute_input_gradient",
        "source_product": "NCEP FNL native 1-degree analysis",
        "initialization_time_utc": "2026-07-28T18:00:00+00:00",
        "system_class": "HIGH_PRIORITY_MODEL_GENESIS_CANDIDATE",
        "classification_confidence": 0.766741386393657,
        "classification_confidence_percent": 76.67,
        "classification_reason": "Validated learned XAI/environment classifier produced 76.7%, above the high-priority threshold 40.0%; no official track match is currently available.",
        "land_fraction": 0.18594104051589966,
        "pressure_anomaly_pa": 775.5625,
        "midlevel_rh_percent": 72.10000101725261,
        "shear_200_850_ms": 20.606263756372385,
        "vorticity_850_s1": 2.211328137491364e-05,
        "surface_temperature_k": 302.38818359375,
        "cnn_confidence": 0.7925965189933777,
        "vit_confidence": 0.9717487096786499,
        "xai_mean_ugrdprs": 0.09021004204749929,
        "xai_mean_vgrdprs": 0.08551412388027882,
        "xai_mean_vvelprs": 0.08244903803966566,
        "xai_mean_tmpprs": 0.08326629203952066,
        "xai_mean_rhprs": 0.08830296931438043,
        "xai_mean_hgtprs": 0.07953373037548225,
        "xai_mean_absvprs": 0.08658743509960846,
        "xai_mean_pressfc": 0.12803230742044447,
        "xai_mean_capesfc": 0.08731011204962971,
        "xai_mean_tmpsfc": 0.08942963281874546,
        "xai_mean_landmask": 0.09936431691474476,
        "xai_column_total_ugrdprs": 0.14617578479094337,
        "xai_column_total_vgrdprs": 0.13856655297106812,
        "xai_column_total_vvelprs": 0.1335999071941858,
        "xai_column_total_tmpprs": 0.13492417854729613,
        "xai_column_total_rhprs": 0.14308557803158375,
        "xai_column_total_hgtprs": 0.1288759528962389,
        "xai_column_total_absvprs": 0.14030572844318678,
        "xai_column_total_pressfc": 0.01091909178715722,
        "xai_column_total_capesfc": 0.007446145013119213,
        "xai_column_total_tmpsfc": 0.007626905965483845,
        "xai_column_total_landmask": 0.008474174359736852
      }
    },
    {
      "type": "Feature",
      "geometry": {
        "type": "Point",
        "coordinates": [
          109.0,
          18.0
        ]
      },
      "properties": {
        "confidence": 0.9932424426078796,
        "confidence_percent": 99.32,
        "raw_model_score": 0.9932424426078796,
        "raw_model_score_percent": 99.32,
        "lead_time_hrs": 24,
        "validation_threshold": 0.75,
        "top_driver": "pressfc",
        "xai_method": "mean_absolute_input_gradient",
        "source_product": "NCEP FNL native 1-degree analysis",
        "initialization_time_utc": "2026-07-28T18:00:00+00:00",
        "system_class": "HIGH_PRIORITY_MODEL_GENESIS_CANDIDATE",
        "classification_confidence": 0.8450718137802968,
        "classification_confidence_percent": 84.51,
        "classification_reason": "Validated learned XAI/environment classifier produced 84.5%, above the high-priority threshold 40.0%; no official track match is currently available.",
        "land_fraction": 0.5487528443336487,
        "pressure_anomaly_pa": 3841.7734375,
        "midlevel_rh_percent": 40.13333384195963,
        "shear_200_850_ms": 5.975349045621293,
        "vorticity_850_s1": 5.21132824360393e-05,
        "surface_temperature_k": 302.08819580078125,
        "cnn_confidence": 0.9251604080200195,
        "vit_confidence": 0.966498851776123,
        "xai_mean_ugrdprs": 0.08372683412516081,
        "xai_mean_vgrdprs": 0.08090085225504869,
        "xai_mean_vvelprs": 0.07331088831185983,
        "xai_mean_tmpprs": 0.07847610068752815,
        "xai_mean_rhprs": 0.07903483059556256,
        "xai_mean_hgtprs": 0.06965457572605736,
        "xai_mean_absvprs": 0.07979128358253068,
        "xai_mean_pressfc": 0.15144876662061288,
        "xai_mean_capesfc": 0.0692544537625746,
        "xai_mean_tmpsfc": 0.09806201134223445,
        "xai_mean_landmask": 0.13633940299083,
        "xai_column_total_ugrdprs": 0.14718659222204308,
        "xai_column_total_vgrdprs": 0.14221868936672735,
        "xai_column_total_vvelprs": 0.12887600136110533,
        "xai_column_total_tmpprs": 0.13795612989581343,
        "xai_column_total_rhprs": 0.13893834143116487,
        "xai_column_total_hgtprs": 0.12244843703489362,
        "xai_column_total_absvprs": 0.140268135767582,
        "xai_column_total_pressfc": 0.014012503153424753,
        "xai_column_total_capesfc": 0.006407633904129171,
        "xai_column_total_tmpsfc": 0.009072997250657132,
        "xai_column_total_landmask": 0.012614538612459269
      }
    }
  ]
}