{
    "type": "FeatureCollection",
    "features": [
        {
            "type": "Feature",
            "geometry": {
                "type": "Point",
                "coordinates": [
                    252.0,
                    22.0
                ]
            },
            "properties": {
                "confidence": 0.6773727759623764,
                "lead_time_hrs": 48,
                "top_driver": "vgrdprs",
                "ugrdprs": 0.007828551344573498,
                "vgrdprs": 0.007829872891306877,
                "vvelprs": 0.007317446172237396,
                "tmpprs": 0.007235724478960037,
                "rhprs": 0.007024907507002354,
                "hgtprs": 0.007450331933796406,
                "absvprs": 0.0073540713638067245,
                "pressfc": 0.000588853086810559,
                "capesfc": 0.00039076621760614216,
                "tmpsfc": 0.00044443309889175,
                "landmask": 0.0003971530531998724
            }
        },
        {
            "type": "Feature",
            "geometry": {
                "type": "Point",
                "coordinates": [
                    50.0,
                    28.0
                ]
            },
            "properties": {
                "confidence": 0.5801998307270116,
                "lead_time_hrs": 48,
                "top_driver": "ugrdprs",
                "ugrdprs": 0.0006547185475938022,
                "vgrdprs": 0.0006476832204498351,
                "vvelprs": 0.0006425507017411292,
                "tmpprs": 0.0006275315536186099,
                "rhprs": 0.0006085872300900519,
                "hgtprs": 0.0006329931784421206,
                "absvprs": 0.0006126445368863642,
                "pressfc": 3.948331868741661e-05,
                "capesfc": 2.9791361157549545e-05,
                "tmpsfc": 2.9450633519445546e-05,
                "landmask": 4.840752080781385e-05
            }
        },
        {
            "type": "Feature",
            "geometry": {
                "type": "Point",
                "coordinates": [
                    288.0,
                    32.0
                ]
            },
            "properties": {
                "confidence": 0.5300848743114928,
                "lead_time_hrs": 48,
                "top_driver": "rhprs",
                "ugrdprs": 0.018440281972289085,
                "vgrdprs": 0.019657917320728302,
                "vvelprs": 0.019336221739649773,
                "tmpprs": 0.017865829169750214,
                "rhprs": 0.01972069777548313,
                "hgtprs": 0.019029416143894196,
                "absvprs": 0.017547432333230972,
                "pressfc": 0.0009921404998749495,
                "capesfc": 0.0010736121330410242,
                "tmpsfc": 0.0009558134479448199,
                "landmask": 0.001001690630801022
            }
        },
        {
            "type": "Feature",
            "geometry": {
                "type": "Point",
                "coordinates": [
                    270.0,
                    24.0
                ]
            },
            "properties": {
                "confidence": 0.5295370454211001,
                "lead_time_hrs": 48,
                "top_driver": "vgrdprs",
                "ugrdprs": 0.017369728535413742,
                "vgrdprs": 0.01751232147216797,
                "vvelprs": 0.01734985038638115,
                "tmpprs": 0.01583125814795494,
                "rhprs": 0.01673322543501854,
                "hgtprs": 0.016926215961575508,
                "absvprs": 0.016674773767590523,
                "pressfc": 0.0011194440303370357,
                "capesfc": 0.0007777688442729414,
                "tmpsfc": 0.0008985160966403782,
                "landmask": 0.0009000888094305992
            }
        },
        {
            "type": "Feature",
            "geometry": {
                "type": "Point",
                "coordinates": [
                    64.0,
                    22.0
                ]
            },
            "properties": {
                "confidence": 0.49801088257381637,
                "lead_time_hrs": 48,
                "top_driver": "ugrdprs",
                "ugrdprs": 0.0185281652957201,
                "vgrdprs": 0.017399832606315613,
                "vvelprs": 0.0176988672465086,
                "tmpprs": 0.01749347895383835,
                "rhprs": 0.01776183769106865,
                "hgtprs": 0.017339980229735374,
                "absvprs": 0.016364354640245438,
                "pressfc": 0.001130873803049326,
                "capesfc": 0.0009356336668133736,
                "tmpsfc": 0.0008903171983547509,
                "landmask": 0.0009448770433664322
            }
        }
    ]
}