{
  "type": "FeatureCollection",
  "metadata": {
    "initialization_time_utc": "2026-07-27T18:00:00+00:00",
    "lead_time_hrs": 24,
    "threshold": 0.75,
    "source_product": "NCEP FNL native 1-degree analysis",
    "training_domain_note": "Model input uses native NCEP FNL fields. Post-class labels are rule-based diagnostics, not calibrated probabilities.",
    "channel_schema": [
      "ugrdprs_1000",
      "ugrdprs_975",
      "ugrdprs_950",
      "ugrdprs_925",
      "ugrdprs_900",
      "ugrdprs_850",
      "ugrdprs_800",
      "ugrdprs_750",
      "ugrdprs_700",
      "ugrdprs_650",
      "ugrdprs_600",
      "ugrdprs_550",
      "ugrdprs_500",
      "ugrdprs_450",
      "ugrdprs_400",
      "ugrdprs_350",
      "ugrdprs_300",
      "ugrdprs_250",
      "ugrdprs_200",
      "vgrdprs_1000",
      "vgrdprs_975",
      "vgrdprs_950",
      "vgrdprs_925",
      "vgrdprs_900",
      "vgrdprs_850",
      "vgrdprs_800",
      "vgrdprs_750",
      "vgrdprs_700",
      "vgrdprs_650",
      "vgrdprs_600",
      "vgrdprs_550",
      "vgrdprs_500",
      "vgrdprs_450",
      "vgrdprs_400",
      "vgrdprs_350",
      "vgrdprs_300",
      "vgrdprs_250",
      "vgrdprs_200",
      "vvelprs_1000",
      "vvelprs_975",
      "vvelprs_950",
      "vvelprs_925",
      "vvelprs_900",
      "vvelprs_850",
      "vvelprs_800",
      "vvelprs_750",
      "vvelprs_700",
      "vvelprs_650",
      "vvelprs_600",
      "vvelprs_550",
      "vvelprs_500",
      "vvelprs_450",
      "vvelprs_400",
      "vvelprs_350",
      "vvelprs_300",
      "vvelprs_250",
      "vvelprs_200",
      "tmpprs_1000",
      "tmpprs_975",
      "tmpprs_950",
      "tmpprs_925",
      "tmpprs_900",
      "tmpprs_850",
      "tmpprs_800",
      "tmpprs_750",
      "tmpprs_700",
      "tmpprs_650",
      "tmpprs_600",
      "tmpprs_550",
      "tmpprs_500",
      "tmpprs_450",
      "tmpprs_400",
      "tmpprs_350",
      "tmpprs_300",
      "tmpprs_250",
      "tmpprs_200",
      "rhprs_1000",
      "rhprs_975",
      "rhprs_950",
      "rhprs_925",
      "rhprs_900",
      "rhprs_850",
      "rhprs_800",
      "rhprs_750",
      "rhprs_700",
      "rhprs_650",
      "rhprs_600",
      "rhprs_550",
      "rhprs_500",
      "rhprs_450",
      "rhprs_400",
      "rhprs_350",
      "rhprs_300",
      "rhprs_250",
      "rhprs_200",
      "hgtprs_1000",
      "hgtprs_975",
      "hgtprs_950",
      "hgtprs_925",
      "hgtprs_900",
      "hgtprs_850",
      "hgtprs_800",
      "hgtprs_750",
      "hgtprs_700",
      "hgtprs_650",
      "hgtprs_600",
      "hgtprs_550",
      "hgtprs_500",
      "hgtprs_450",
      "hgtprs_400",
      "hgtprs_350",
      "hgtprs_300",
      "hgtprs_250",
      "hgtprs_200",
      "absvprs_1000",
      "absvprs_975",
      "absvprs_950",
      "absvprs_925",
      "absvprs_900",
      "absvprs_850",
      "absvprs_800",
      "absvprs_750",
      "absvprs_700",
      "absvprs_650",
      "absvprs_600",
      "absvprs_550",
      "absvprs_500",
      "absvprs_450",
      "absvprs_400",
      "absvprs_350",
      "absvprs_300",
      "absvprs_250",
      "absvprs_200",
      "pressfc",
      "capesfc",
      "tmpsfc",
      "landmask"
    ]
  },
  "features": [
    {
      "type": "Feature",
      "geometry": {
        "type": "Point",
        "coordinates": [
          87.0,
          21.0
        ]
      },
      "properties": {
        "confidence": 0.9976835250854492,
        "confidence_percent": 99.77,
        "raw_model_score": 0.9976835250854492,
        "raw_model_score_percent": 99.77,
        "real_world_confidence": 0.3076923076923077,
        "real_world_confidence_percent": 30.77,
        "real_world_confidence_basis": "Empirical precision from strict 2026 FNL verification (16 hits / 52 retained disturbances). Retrospective reference rate, not a calibrated per-storm probability.",
        "empirical_pod_reference": 0.5,
        "empirical_csi_reference": 0.23529411764705882,
        "lead_time_hrs": 24,
        "validation_threshold": 0.75,
        "top_driver": "pressfc",
        "xai_method": "mean_absolute_input_gradient",
        "source_product": "NCEP FNL native 1-degree analysis",
        "initialization_time_utc": "2026-07-27T18:00:00+00:00",
        "system_class": "ACTIVE_DEPRESSION",
        "classification_confidence": 0.9,
        "classification_confidence_percent": 90.0,
        "classification_reason": "Matched recent depression/disturbance bulletin TROPICAL (DB) within 127 km; moist, cyclonic and low-shear structure indicates an existing organized depression rather than new genesis.",
        "land_fraction": 0.6598639488220215,
        "pressure_anomaly_pa": 7363.4140625,
        "midlevel_rh_percent": 98.10000101725261,
        "shear_200_850_ms": 14.214849863113354,
        "vorticity_850_s1": 0.00010338232095818967,
        "surface_temperature_k": 301.7594909667969,
        "matched_system_name": "TROPICAL",
        "matched_system_status": "DB",
        "matched_system_distance_km": 127.2,
        "matched_system_age_hours": 42.5,
        "cnn_confidence": 0.991555392742157,
        "vit_confidence": 0.9867185950279236,
        "xai_mean_ugrdprs": 0.09474517682145704,
        "xai_mean_vgrdprs": 0.08115142265868079,
        "xai_mean_vvelprs": 0.07071420607541949,
        "xai_mean_tmpprs": 0.07950810657381253,
        "xai_mean_rhprs": 0.08477643087891407,
        "xai_mean_hgtprs": 0.07021537149812464,
        "xai_mean_absvprs": 0.0775224256389113,
        "xai_mean_pressfc": 0.15685802729802154,
        "xai_mean_capesfc": 0.06103274435401957,
        "xai_mean_tmpsfc": 0.10893587509878411,
        "xai_mean_landmask": 0.11454021310385493,
        "xai_column_total_ugrdprs": 0.1628307447710353,
        "xai_column_total_vgrdprs": 0.1394682736901922,
        "xai_column_total_vvelprs": 0.12153068486941408,
        "xai_column_total_tmpprs": 0.13664403823454496,
        "xai_column_total_rhprs": 0.14569827112353115,
        "xai_column_total_hgtprs": 0.12067337508607259,
        "xai_column_total_absvprs": 0.13323140752951926,
        "xai_column_total_pressfc": 0.014188367323371233,
        "xai_column_total_capesfc": 0.005520629135562026,
        "xai_column_total_tmpsfc": 0.009853637950309309,
        "xai_column_total_landmask": 0.010360570286447882
      }
    },
    {
      "type": "Feature",
      "geometry": {
        "type": "Point",
        "coordinates": [
          127.0,
          12.0
        ]
      },
      "properties": {
        "confidence": 0.9964403510093689,
        "confidence_percent": 99.64,
        "raw_model_score": 0.9964403510093689,
        "raw_model_score_percent": 99.64,
        "real_world_confidence": 0.3076923076923077,
        "real_world_confidence_percent": 30.77,
        "real_world_confidence_basis": "Empirical precision from strict 2026 FNL verification (16 hits / 52 retained disturbances). Retrospective reference rate, not a calibrated per-storm probability.",
        "empirical_pod_reference": 0.5,
        "empirical_csi_reference": 0.23529411764705882,
        "lead_time_hrs": 24,
        "validation_threshold": 0.75,
        "top_driver": "landmask",
        "xai_method": "mean_absolute_input_gradient",
        "source_product": "NCEP FNL native 1-degree analysis",
        "initialization_time_utc": "2026-07-27T18:00:00+00:00",
        "system_class": "UNVERIFIED_ENVIRONMENTAL_SIGNAL",
        "classification_confidence": 0.6,
        "classification_confidence_percent": 60.0,
        "classification_reason": "5/6 favorable environmental checks passed, but no recent official active-system or invest position matched this hotspot. It is not labelled as new genesis until externally confirmed.",
        "land_fraction": 0.07482992857694626,
        "pressure_anomaly_pa": 196.9375,
        "midlevel_rh_percent": 90.5,
        "shear_200_850_ms": 0.3711021001575288,
        "vorticity_850_s1": 4.238232577336021e-05,
        "surface_temperature_k": 302.2594909667969,
        "cnn_confidence": 0.9713433980941772,
        "vit_confidence": 0.9625021815299988,
        "xai_mean_ugrdprs": 0.08489805355410428,
        "xai_mean_vgrdprs": 0.08455507768862545,
        "xai_mean_vvelprs": 0.07884812251933049,
        "xai_mean_tmpprs": 0.08050912538324725,
        "xai_mean_rhprs": 0.08187384858788668,
        "xai_mean_hgtprs": 0.07154360099601453,
        "xai_mean_absvprs": 0.08799018473550742,
        "xai_mean_pressfc": 0.13055582118055026,
        "xai_mean_capesfc": 0.07284564006395794,
        "xai_mean_tmpsfc": 0.09493023868933448,
        "xai_mean_landmask": 0.1314502866014412,
        "xai_column_total_ugrdprs": 0.1432061296372624,
        "xai_column_total_vgrdprs": 0.14262760410634928,
        "xai_column_total_vvelprs": 0.1330011051557465,
        "xai_column_total_tmpprs": 0.13580288006991467,
        "xai_column_total_rhprs": 0.13810490102108108,
        "xai_column_total_hgtprs": 0.12067981936654902,
        "xai_column_total_absvprs": 0.14842194352786897,
        "xai_column_total_pressfc": 0.01159061589641634,
        "xai_column_total_capesfc": 0.006467163440703926,
        "xai_column_total_tmpsfc": 0.008427812131651748,
        "xai_column_total_landmask": 0.011670025646456025
      }
    },
    {
      "type": "Feature",
      "geometry": {
        "type": "Point",
        "coordinates": [
          112.0,
          17.0
        ]
      },
      "properties": {
        "confidence": 0.9960644841194153,
        "confidence_percent": 99.61,
        "raw_model_score": 0.9960644841194153,
        "raw_model_score_percent": 99.61,
        "real_world_confidence": 0.3076923076923077,
        "real_world_confidence_percent": 30.77,
        "real_world_confidence_basis": "Empirical precision from strict 2026 FNL verification (16 hits / 52 retained disturbances). Retrospective reference rate, not a calibrated per-storm probability.",
        "empirical_pod_reference": 0.5,
        "empirical_csi_reference": 0.23529411764705882,
        "lead_time_hrs": 24,
        "validation_threshold": 0.75,
        "top_driver": "pressfc",
        "xai_method": "mean_absolute_input_gradient",
        "source_product": "NCEP FNL native 1-degree analysis",
        "initialization_time_utc": "2026-07-27T18:00:00+00:00",
        "system_class": "UNCLASSIFIED_DISTURBANCE",
        "classification_confidence": 0.4,
        "classification_confidence_percent": 40.0,
        "classification_reason": "Strong neural signal, but neither official track matching nor the conservative environmental rules support a more specific class.",
        "land_fraction": 0.4195011258125305,
        "pressure_anomaly_pa": 2338.828125,
        "midlevel_rh_percent": 33.63333384195963,
        "shear_200_850_ms": 7.145621750381871,
        "vorticity_850_s1": 5.038232484366745e-05,
        "surface_temperature_k": 302.45947265625,
        "cnn_confidence": 0.9065119028091431,
        "vit_confidence": 0.9849901795387268,
        "xai_mean_ugrdprs": 0.09351994264899927,
        "xai_mean_vgrdprs": 0.08891318844045952,
        "xai_mean_vvelprs": 0.08914609491973628,
        "xai_mean_tmpprs": 0.09032910762075985,
        "xai_mean_rhprs": 0.08951832247073906,
        "xai_mean_hgtprs": 0.08644888112260754,
        "xai_mean_absvprs": 0.09302581403888054,
        "xai_mean_pressfc": 0.10700867862686483,
        "xai_mean_capesfc": 0.08525855695998065,
        "xai_mean_tmpsfc": 0.08908657545917541,
        "xai_mean_landmask": 0.08774483769179707,
        "xai_column_total_ugrdprs": 0.1438043611967322,
        "xai_column_total_vgrdprs": 0.13672061620663697,
        "xai_column_total_vvelprs": 0.13707874967967337,
        "xai_column_total_tmpprs": 0.13889785343897004,
        "xai_column_total_rhprs": 0.13765111634225788,
        "xai_column_total_hgtprs": 0.1329312813825914,
        "xai_column_total_absvprs": 0.14304454681061998,
        "xai_column_total_pressfc": 0.008660305512266863,
        "xai_column_total_capesfc": 0.006900049232297221,
        "xai_column_total_tmpsfc": 0.007209854101725007,
        "xai_column_total_landmask": 0.007101266096229105
      }
    },
    {
      "type": "Feature",
      "geometry": {
        "type": "Point",
        "coordinates": [
          179.0,
          11.0
        ]
      },
      "properties": {
        "confidence": 0.9913440942764282,
        "confidence_percent": 99.13,
        "raw_model_score": 0.9913440942764282,
        "raw_model_score_percent": 99.13,
        "real_world_confidence": 0.3076923076923077,
        "real_world_confidence_percent": 30.77,
        "real_world_confidence_basis": "Empirical precision from strict 2026 FNL verification (16 hits / 52 retained disturbances). Retrospective reference rate, not a calibrated per-storm probability.",
        "empirical_pod_reference": 0.5,
        "empirical_csi_reference": 0.23529411764705882,
        "lead_time_hrs": 24,
        "validation_threshold": 0.75,
        "top_driver": "pressfc",
        "xai_method": "mean_absolute_input_gradient",
        "source_product": "NCEP FNL native 1-degree analysis",
        "initialization_time_utc": "2026-07-27T18:00:00+00:00",
        "system_class": "UNVERIFIED_ENVIRONMENTAL_SIGNAL",
        "classification_confidence": 0.6,
        "classification_confidence_percent": 60.0,
        "classification_reason": "6/6 favorable environmental checks passed, but no recent official active-system or invest position matched this hotspot. It is not labelled as new genesis until externally confirmed.",
        "land_fraction": 0.0,
        "pressure_anomaly_pa": -161.0,
        "midlevel_rh_percent": 79.83333333333333,
        "shear_200_850_ms": 10.428717710031089,
        "vorticity_850_s1": 4.238232577336021e-05,
        "surface_temperature_k": 301.8594970703125,
        "cnn_confidence": 0.9076492786407471,
        "vit_confidence": 0.9718238711357117,
        "xai_mean_ugrdprs": 0.07873525280861547,
        "xai_mean_vgrdprs": 0.08288679796018479,
        "xai_mean_vvelprs": 0.06493317326658998,
        "xai_mean_tmpprs": 0.07268384101371526,
        "xai_mean_rhprs": 0.07720863084044531,
        "xai_mean_hgtprs": 0.061668449990361425,
        "xai_mean_absvprs": 0.08460873047591878,
        "xai_mean_pressfc": 0.15914973765811904,
        "xai_mean_capesfc": 0.06193344684585903,
        "xai_mean_tmpsfc": 0.11792852410143768,
        "xai_mean_landmask": 0.13826341503875322,
        "xai_column_total_ugrdprs": 0.14371821993565742,
        "xai_column_total_vgrdprs": 0.1512961799171607,
        "xai_column_total_vvelprs": 0.11852480105620232,
        "xai_column_total_tmpprs": 0.13267236772729263,
        "xai_column_total_rhprs": 0.14093161984305266,
        "xai_column_total_hgtprs": 0.11256558318943688,
        "xai_column_total_absvprs": 0.15443927976540392,
        "xai_column_total_pressfc": 0.015289557791409426,
        "xai_column_total_capesfc": 0.005949962775340067,
        "xai_column_total_tmpsfc": 0.011329424798536995,
        "xai_column_total_landmask": 0.013283003200506998
      }
    },
    {
      "type": "Feature",
      "geometry": {
        "type": "Point",
        "coordinates": [
          -35.0,
          11.0
        ]
      },
      "properties": {
        "confidence": 0.9911796450614929,
        "confidence_percent": 99.12,
        "raw_model_score": 0.9911796450614929,
        "raw_model_score_percent": 99.12,
        "real_world_confidence": 0.3076923076923077,
        "real_world_confidence_percent": 30.77,
        "real_world_confidence_basis": "Empirical precision from strict 2026 FNL verification (16 hits / 52 retained disturbances). Retrospective reference rate, not a calibrated per-storm probability.",
        "empirical_pod_reference": 0.5,
        "empirical_csi_reference": 0.23529411764705882,
        "lead_time_hrs": 24,
        "validation_threshold": 0.75,
        "top_driver": "landmask",
        "xai_method": "mean_absolute_input_gradient",
        "source_product": "NCEP FNL native 1-degree analysis",
        "initialization_time_utc": "2026-07-27T18:00:00+00:00",
        "system_class": "UNVERIFIED_ENVIRONMENTAL_SIGNAL",
        "classification_confidence": 0.6,
        "classification_confidence_percent": 60.0,
        "classification_reason": "6/6 favorable environmental checks passed, but no recent official active-system or invest position matched this hotspot. It is not labelled as new genesis until externally confirmed.",
        "land_fraction": 0.0,
        "pressure_anomaly_pa": -137.9375,
        "midlevel_rh_percent": 72.33333333333333,
        "shear_200_850_ms": 15.451649416775748,
        "vorticity_850_s1": -1.261767465621233e-05,
        "surface_temperature_k": 300.0594787597656,
        "cnn_confidence": 0.8601678609848022,
        "vit_confidence": 0.9323601126670837,
        "xai_mean_ugrdprs": 0.1002846503238505,
        "xai_mean_vgrdprs": 0.09041322037550409,
        "xai_mean_vvelprs": 0.0851425256996473,
        "xai_mean_tmpprs": 0.08556419962169899,
        "xai_mean_rhprs": 0.08601426274736163,
        "xai_mean_hgtprs": 0.08023893403034263,
        "xai_mean_absvprs": 0.09049380099055027,
        "xai_mean_pressfc": 0.1004946917277946,
        "xai_mean_capesfc": 0.08296796717362336,
        "xai_mean_tmpsfc": 0.09103555386167994,
        "xai_mean_landmask": 0.10735019344794669,
        "xai_column_total_ugrdprs": 0.15712467629956925,
        "xai_column_total_vgrdprs": 0.14165825503402701,
        "xai_column_total_vvelprs": 0.1334001919528266,
        "xai_column_total_tmpprs": 0.13406087104227232,
        "xai_column_total_rhprs": 0.13476602346291866,
        "xai_column_total_hgtprs": 0.12571731287551272,
        "xai_column_total_absvprs": 0.1417845070954473,
        "xai_column_total_pressfc": 0.008287040369041083,
        "xai_column_total_capesfc": 0.006841743394441685,
        "xai_column_total_tmpsfc": 0.007507016509023243,
        "xai_column_total_landmask": 0.008852361964920142
      }
    }
  ]
}