{
    "type": "FeatureCollection",
    "features": [
        {
            "type": "Feature",
            "geometry": {
                "type": "Point",
                "coordinates": [
                    -96.0,
                    15.0
                ]
            },
            "properties": {
                "confidence": 0.3271447556359428,
                "raw_confidence": 0.6150022149085999,
                "confidence_std": 0.0006988274419989958,
                "lead_time_hrs": 24,
                "top_driver": "ugrdprs",
                "ugrdprs": 0.029081128537654877,
                "vgrdprs": 0.026225071400403976,
                "vvelprs": 0.026977304369211197,
                "tmpprs": 0.02786320634186268,
                "rhprs": 0.026311373338103294,
                "hgtprs": 0.02777455374598503,
                "absvprs": 0.026212479919195175,
                "pressfc": 0.0017396612092852592,
                "capesfc": 0.0012442496372386813,
                "tmpsfc": 0.0016074215527623892,
                "landmask": 0.0014945549191907048
            }
        },
        {
            "type": "Feature",
            "geometry": {
                "type": "Point",
                "coordinates": [
                    -123.0,
                    21.0
                ]
            },
            "properties": {
                "confidence": 0.2261882475444249,
                "raw_confidence": 0.49721962213516235,
                "confidence_std": 0.001176996221885281,
                "lead_time_hrs": 24,
                "top_driver": "vgrdprs",
                "ugrdprs": 0.03471718728542328,
                "vgrdprs": 0.03683798015117645,
                "vvelprs": 0.036698468029499054,
                "tmpprs": 0.03229198604822159,
                "rhprs": 0.035845085978507996,
                "hgtprs": 0.03426436707377434,
                "absvprs": 0.034294892102479935,
                "pressfc": 0.002422099467366934,
                "capesfc": 0.0021955727133899927,
                "tmpsfc": 0.0019320567371323705,
                "landmask": 0.001940992777235806
            }
        }
    ]
}