{
    "type": "FeatureCollection",
    "features": [
        {
            "type": "Feature",
            "geometry": {
                "type": "Point",
                "coordinates": [
                    268.0,
                    24.0
                ]
            },
            "properties": {
                "confidence": 0.828977210361075,
                "lead_time_hrs": 24,
                "top_driver": "absvprs",
                "ugrdprs": 0.0010595996864140034,
                "vgrdprs": 0.001027822494506836,
                "vvelprs": 0.001011763932183385,
                "tmpprs": 0.0010054083541035652,
                "rhprs": 0.0009978266898542643,
                "hgtprs": 0.001025655074045062,
                "absvprs": 0.0010619093663990498,
                "pressfc": 4.152589099248871e-05,
                "capesfc": 4.618887396645732e-05,
                "tmpsfc": 4.769827501149848e-05,
                "landmask": 7.332866516662762e-05
            }
        }
    ]
}