{
    "type": "FeatureCollection",
    "features": [
        {
            "type": "Feature",
            "geometry": {
                "type": "Point",
                "coordinates": [
                    87.0,
                    21.0
                ]
            },
            "properties": {
                "confidence": 0.9969670176506042,
                "confidence_percent": 99.7,
                "cnn_confidence": 0.9908682107925415,
                "vit_confidence": 0.9789567589759827,
                "lead_time_hrs": 48,
                "top_driver": "ugrdprs",
                "ugrdprs": 4.699467899627052e-05,
                "vgrdprs": 4.147145227761939e-05,
                "vvelprs": 3.87826185033191e-05,
                "tmpprs": 3.962005939683877e-05,
                "rhprs": 4.5702843635808676e-05,
                "hgtprs": 3.809304325841367e-05,
                "absvprs": 4.2205901991110295e-05,
                "pressfc": 3.685756610138924e-06,
                "capesfc": 1.948301587617607e-06,
                "tmpsfc": 2.373237975916709e-06,
                "landmask": 2.606926045700675e-06
            }
        },
        {
            "type": "Feature",
            "geometry": {
                "type": "Point",
                "coordinates": [
                    -176.0,
                    14.0
                ]
            },
            "properties": {
                "confidence": 0.996911346912384,
                "confidence_percent": 99.69,
                "cnn_confidence": 0.9670781493186951,
                "vit_confidence": 0.9903305768966675,
                "lead_time_hrs": 48,
                "top_driver": "absvprs",
                "ugrdprs": 6.176528404466808e-05,
                "vgrdprs": 6.172878784127533e-05,
                "vvelprs": 5.944637814536691e-05,
                "tmpprs": 6.014189784764312e-05,
                "rhprs": 5.9874953876715153e-05,
                "hgtprs": 5.943177893641405e-05,
                "absvprs": 6.18728663539514e-05,
                "pressfc": 3.6446685953706037e-06,
                "capesfc": 3.132284973617061e-06,
                "tmpsfc": 3.1566132747684605e-06,
                "landmask": 3.6438575534702977e-06
            }
        },
        {
            "type": "Feature",
            "geometry": {
                "type": "Point",
                "coordinates": [
                    140.0,
                    10.0
                ]
            },
            "properties": {
                "confidence": 0.9952958226203918,
                "confidence_percent": 99.53,
                "cnn_confidence": 0.9183794260025024,
                "vit_confidence": 0.9620112180709839,
                "lead_time_hrs": 48,
                "top_driver": "ugrdprs",
                "ugrdprs": 0.00024872817448340356,
                "vgrdprs": 0.0002244854113087058,
                "vvelprs": 0.00021326745627447963,
                "tmpprs": 0.00022417995205614716,
                "rhprs": 0.00021937118435744196,
                "hgtprs": 0.00021197802561800927,
                "absvprs": 0.00023093027994036674,
                "pressfc": 1.7621619917917997e-05,
                "capesfc": 1.0666528396541253e-05,
                "tmpsfc": 1.23335657917778e-05,
                "landmask": 1.5230541066557635e-05
            }
        },
        {
            "type": "Feature",
            "geometry": {
                "type": "Point",
                "coordinates": [
                    180.0,
                    10.0
                ]
            },
            "properties": {
                "confidence": 0.9952303767204285,
                "confidence_percent": 99.52,
                "cnn_confidence": 0.9740515351295471,
                "vit_confidence": 0.9864587187767029,
                "lead_time_hrs": 48,
                "top_driver": "ugrdprs",
                "ugrdprs": 7.87536846473813e-05,
                "vgrdprs": 7.433713471982628e-05,
                "vvelprs": 7.541312515968457e-05,
                "tmpprs": 7.463014480890706e-05,
                "rhprs": 7.461353379767388e-05,
                "hgtprs": 7.356564310612157e-05,
                "absvprs": 7.637869566679001e-05,
                "pressfc": 4.5584711187984794e-06,
                "capesfc": 3.8134808164613787e-06,
                "tmpsfc": 4.0769036786514334e-06,
                "landmask": 4.093392817594577e-06
            }
        },
        {
            "type": "Feature",
            "geometry": {
                "type": "Point",
                "coordinates": [
                    -172.0,
                    10.0
                ]
            },
            "properties": {
                "confidence": 0.9943917393684387,
                "confidence_percent": 99.44,
                "cnn_confidence": 0.7858529686927795,
                "vit_confidence": 0.9865847826004028,
                "lead_time_hrs": 48,
                "top_driver": "rhprs",
                "ugrdprs": 0.0002027969021582976,
                "vgrdprs": 0.00020316749578341842,
                "vvelprs": 0.0001952650782186538,
                "tmpprs": 0.00019464065553620458,
                "rhprs": 0.00020898671937175095,
                "hgtprs": 0.00018924489268101752,
                "absvprs": 0.00020419525390025228,
                "pressfc": 1.380354387947591e-05,
                "capesfc": 1.004763998935232e-05,
                "tmpsfc": 1.271011569770053e-05,
                "landmask": 1.1370971151336562e-05
            }
        },
        {
            "type": "Feature",
            "geometry": {
                "type": "Point",
                "coordinates": [
                    145.0,
                    7.0
                ]
            },
            "properties": {
                "confidence": 0.994354248046875,
                "confidence_percent": 99.44,
                "cnn_confidence": 0.8536179661750793,
                "vit_confidence": 0.9817448258399963,
                "lead_time_hrs": 48,
                "top_driver": "rhprs",
                "ugrdprs": 0.00013575261982623488,
                "vgrdprs": 0.00013922197103966027,
                "vvelprs": 0.0001275016402360052,
                "tmpprs": 0.00013160152593627572,
                "rhprs": 0.0001452259748475626,
                "hgtprs": 0.00012985311332158744,
                "absvprs": 0.00013441307237371802,
                "pressfc": 8.456560863123741e-06,
                "capesfc": 6.984285846556304e-06,
                "tmpsfc": 6.842099537607282e-06,
                "landmask": 8.259230526164174e-06
            }
        },
        {
            "type": "Feature",
            "geometry": {
                "type": "Point",
                "coordinates": [
                    -91.0,
                    9.0
                ]
            },
            "properties": {
                "confidence": 0.9850645661354065,
                "confidence_percent": 98.51,
                "cnn_confidence": 0.4626038670539856,
                "vit_confidence": 0.9672706127166748,
                "lead_time_hrs": 48,
                "top_driver": "ugrdprs",
                "ugrdprs": 0.000546760973520577,
                "vgrdprs": 0.0005266111111268401,
                "vvelprs": 0.0005287927924655378,
                "tmpprs": 0.000525330426171422,
                "rhprs": 0.0005352363223209977,
                "hgtprs": 0.0005273642018437386,
                "absvprs": 0.0005467564915306866,
                "pressfc": 3.0163058909238316e-05,
                "capesfc": 2.7316902560414746e-05,
                "tmpsfc": 2.856008541129995e-05,
                "landmask": 2.669666355359368e-05
            }
        },
        {
            "type": "Feature",
            "geometry": {
                "type": "Point",
                "coordinates": [
                    -107.0,
                    11.0
                ]
            },
            "properties": {
                "confidence": 0.9767047166824341,
                "confidence_percent": 97.67,
                "cnn_confidence": 0.9895763397216797,
                "vit_confidence": 0.8838626742362976,
                "lead_time_hrs": 48,
                "top_driver": "rhprs",
                "ugrdprs": 0.0006239500362426043,
                "vgrdprs": 0.0006263760151341558,
                "vvelprs": 0.0005371706793084741,
                "tmpprs": 0.0005924328579567373,
                "rhprs": 0.0006776796653866768,
                "hgtprs": 0.0005900462274439633,
                "absvprs": 0.0006231387378647923,
                "pressfc": 3.91182184102945e-05,
                "capesfc": 3.40703409165144e-05,
                "tmpsfc": 4.891784192295745e-05,
                "landmask": 3.559005563147366e-05
            }
        },
        {
            "type": "Feature",
            "geometry": {
                "type": "Point",
                "coordinates": [
                    169.0,
                    31.0
                ]
            },
            "properties": {
                "confidence": 0.9593271613121033,
                "confidence_percent": 95.93,
                "cnn_confidence": 0.24559244513511658,
                "vit_confidence": 0.9227779507637024,
                "lead_time_hrs": 48,
                "top_driver": "ugrdprs",
                "ugrdprs": 0.002568000229075551,
                "vgrdprs": 0.0023700352758169174,
                "vvelprs": 0.0020026566926389933,
                "tmpprs": 0.0022150573786348104,
                "rhprs": 0.0021363014820963144,
                "hgtprs": 0.0019095175666734576,
                "absvprs": 0.0022002605255693197,
                "pressfc": 0.00022285770683083683,
                "capesfc": 9.26930588320829e-05,
                "tmpsfc": 0.00015289145812857896,
                "landmask": 0.0001756125857355073
            }
        },
        {
            "type": "Feature",
            "geometry": {
                "type": "Point",
                "coordinates": [
                    119.0,
                    16.0
                ]
            },
            "properties": {
                "confidence": 0.948326826095581,
                "confidence_percent": 94.83,
                "cnn_confidence": 0.6304061412811279,
                "vit_confidence": 0.9268426299095154,
                "lead_time_hrs": 48,
                "top_driver": "absvprs",
                "ugrdprs": 0.003059473354369402,
                "vgrdprs": 0.002997063100337982,
                "vvelprs": 0.0026134445797652006,
                "tmpprs": 0.002813882427290082,
                "rhprs": 0.002865747781470418,
                "hgtprs": 0.0025806191843003035,
                "absvprs": 0.0030599990859627724,
                "pressfc": 0.00028579143690876663,
                "capesfc": 0.0001326496567344293,
                "tmpsfc": 0.00019491976127028465,
                "landmask": 0.00024856149684637785
            }
        },
        {
            "type": "Feature",
            "geometry": {
                "type": "Point",
                "coordinates": [
                    146.0,
                    23.0
                ]
            },
            "properties": {
                "confidence": 0.9315694570541382,
                "confidence_percent": 93.16,
                "cnn_confidence": 0.7103496193885803,
                "vit_confidence": 0.8582668304443359,
                "lead_time_hrs": 48,
                "top_driver": "ugrdprs",
                "ugrdprs": 0.0065175630152225494,
                "vgrdprs": 0.005824741441756487,
                "vvelprs": 0.004534607753157616,
                "tmpprs": 0.005119906738400459,
                "rhprs": 0.005611661821603775,
                "hgtprs": 0.004404409322887659,
                "absvprs": 0.005600694101303816,
                "pressfc": 0.000780056812800467,
                "capesfc": 0.00021493273379746825,
                "tmpsfc": 0.00025163620011880994,
                "landmask": 0.0005817186320200562
            }
        },
        {
            "type": "Feature",
            "geometry": {
                "type": "Point",
                "coordinates": [
                    83.0,
                    17.0
                ]
            },
            "properties": {
                "confidence": 0.9203960299491882,
                "confidence_percent": 92.04,
                "cnn_confidence": 0.584999680519104,
                "vit_confidence": 0.8857582211494446,
                "lead_time_hrs": 48,
                "top_driver": "rhprs",
                "ugrdprs": 0.0033900770358741283,
                "vgrdprs": 0.0031183939427137375,
                "vvelprs": 0.0029736824799329042,
                "tmpprs": 0.003040595445781946,
                "rhprs": 0.0033936891704797745,
                "hgtprs": 0.0030484197195619345,
                "absvprs": 0.003193507669493556,
                "pressfc": 0.0002620195737108588,
                "capesfc": 0.00016812510148156434,
                "tmpsfc": 0.0001870866835815832,
                "landmask": 0.0001554768969072029
            }
        },
        {
            "type": "Feature",
            "geometry": {
                "type": "Point",
                "coordinates": [
                    92.0,
                    20.0
                ]
            },
            "properties": {
                "confidence": 0.9158825874328613,
                "confidence_percent": 91.59,
                "cnn_confidence": 0.9666405320167542,
                "vit_confidence": 0.7886173129081726,
                "lead_time_hrs": 48,
                "top_driver": "ugrdprs",
                "ugrdprs": 0.0031887127552181482,
                "vgrdprs": 0.0027175035793334246,
                "vvelprs": 0.0025709851179271936,
                "tmpprs": 0.002700309967622161,
                "rhprs": 0.0029703001491725445,
                "hgtprs": 0.002573012840002775,
                "absvprs": 0.002793091582134366,
                "pressfc": 0.0003059572773054242,
                "capesfc": 0.00014344770170282573,
                "tmpsfc": 0.0001739235158311203,
                "landmask": 0.0001688275224296376
            }
        },
        {
            "type": "Feature",
            "geometry": {
                "type": "Point",
                "coordinates": [
                    179.0,
                    15.0
                ]
            },
            "properties": {
                "confidence": 0.9081173539161682,
                "confidence_percent": 90.81,
                "cnn_confidence": 0.7894691824913025,
                "vit_confidence": 0.8848017454147339,
                "lead_time_hrs": 48,
                "top_driver": "absvprs",
                "ugrdprs": 0.0045061432756483555,
                "vgrdprs": 0.004568117670714855,
                "vvelprs": 0.003962049726396799,
                "tmpprs": 0.004349954426288605,
                "rhprs": 0.004691341891884804,
                "hgtprs": 0.003716774983331561,
                "absvprs": 0.0050481525249779224,
                "pressfc": 0.0004931619623675942,
                "capesfc": 0.0002170293009839952,
                "tmpsfc": 0.0003068193036597222,
                "landmask": 0.0004127586435060948
            }
        },
        {
            "type": "Feature",
            "geometry": {
                "type": "Point",
                "coordinates": [
                    174.0,
                    9.0
                ]
            },
            "properties": {
                "confidence": 0.854866623878479,
                "confidence_percent": 85.49,
                "cnn_confidence": 0.7437304854393005,
                "vit_confidence": 0.8117311000823975,
                "lead_time_hrs": 48,
                "top_driver": "ugrdprs",
                "ugrdprs": 0.004417101386934519,
                "vgrdprs": 0.003799849422648549,
                "vvelprs": 0.0035910026635974646,
                "tmpprs": 0.003906389232724905,
                "rhprs": 0.003933248110115528,
                "hgtprs": 0.0032431702129542828,
                "absvprs": 0.004148049280047417,
                "pressfc": 0.0002954077790491283,
                "capesfc": 0.0001911200670292601,
                "tmpsfc": 0.0002814799081534147,
                "landmask": 0.00025332244695164263
            }
        },
        {
            "type": "Feature",
            "geometry": {
                "type": "Point",
                "coordinates": [
                    -101.0,
                    11.0
                ]
            },
            "properties": {
                "confidence": 0.8457401394844055,
                "confidence_percent": 84.57,
                "cnn_confidence": 0.7616919875144958,
                "vit_confidence": 0.7366010546684265,
                "lead_time_hrs": 48,
                "top_driver": "vgrdprs",
                "ugrdprs": 0.005424621049314737,
                "vgrdprs": 0.005541819613426924,
                "vvelprs": 0.004508523270487785,
                "tmpprs": 0.0050091990269720554,
                "rhprs": 0.0054810624569654465,
                "hgtprs": 0.004818016197532415,
                "absvprs": 0.005089151207357645,
                "pressfc": 0.00037658499786630273,
                "capesfc": 0.0002979068667627871,
                "tmpsfc": 0.00039689367986284196,
                "landmask": 0.0002574488171376288
            }
        },
        {
            "type": "Feature",
            "geometry": {
                "type": "Point",
                "coordinates": [
                    -74.0,
                    29.0
                ]
            },
            "properties": {
                "confidence": 0.8121728301048279,
                "confidence_percent": 81.22,
                "cnn_confidence": 0.2322995960712433,
                "vit_confidence": 0.6926211714744568,
                "lead_time_hrs": 48,
                "top_driver": "ugrdprs",
                "ugrdprs": 0.006140393204987049,
                "vgrdprs": 0.0057779294438660145,
                "vvelprs": 0.005502466578036547,
                "tmpprs": 0.005430752411484718,
                "rhprs": 0.005623360630124807,
                "hgtprs": 0.005002324935048819,
                "absvprs": 0.005667363293468952,
                "pressfc": 0.000422790355514735,
                "capesfc": 0.000302259752061218,
                "tmpsfc": 0.0002883590350393206,
                "landmask": 0.0003864584141410887
            }
        },
        {
            "type": "Feature",
            "geometry": {
                "type": "Point",
                "coordinates": [
                    88.0,
                    16.0
                ]
            },
            "properties": {
                "confidence": 0.8005356192588806,
                "confidence_percent": 80.05,
                "cnn_confidence": 0.4809093773365021,
                "vit_confidence": 0.8322568535804749,
                "lead_time_hrs": 48,
                "top_driver": "ugrdprs",
                "ugrdprs": 0.004041038453578949,
                "vgrdprs": 0.0036603878252208233,
                "vvelprs": 0.003492683870717883,
                "tmpprs": 0.0035871141590178013,
                "rhprs": 0.0038602238055318594,
                "hgtprs": 0.003552886890247464,
                "absvprs": 0.003727746196091175,
                "pressfc": 0.0002717168827075511,
                "capesfc": 0.0002065034641418606,
                "tmpsfc": 0.000222481568926014,
                "landmask": 0.00019959027122240514
            }
        },
        {
            "type": "Feature",
            "geometry": {
                "type": "Point",
                "coordinates": [
                    -77.0,
                    34.0
                ]
            },
            "properties": {
                "confidence": 0.7892217040061951,
                "confidence_percent": 78.92,
                "cnn_confidence": 0.3659191131591797,
                "vit_confidence": 0.67195063829422,
                "lead_time_hrs": 48,
                "top_driver": "ugrdprs",
                "ugrdprs": 0.004542237147688866,
                "vgrdprs": 0.004523756913840771,
                "vvelprs": 0.004251633305102587,
                "tmpprs": 0.004298999439924955,
                "rhprs": 0.004417241085320711,
                "hgtprs": 0.0042786747217178345,
                "absvprs": 0.004496556241065264,
                "pressfc": 0.00027268638950772583,
                "capesfc": 0.00025004337658174336,
                "tmpsfc": 0.00024314018082804978,
                "landmask": 0.00025133765302598476
            }
        },
        {
            "type": "Feature",
            "geometry": {
                "type": "Point",
                "coordinates": [
                    141.0,
                    22.0
                ]
            },
            "properties": {
                "confidence": 0.7630053758621216,
                "confidence_percent": 76.3,
                "cnn_confidence": 0.6945311427116394,
                "vit_confidence": 0.6007240414619446,
                "lead_time_hrs": 48,
                "top_driver": "ugrdprs",
                "ugrdprs": 0.004265715833753347,
                "vgrdprs": 0.004155830014497042,
                "vvelprs": 0.004123235121369362,
                "tmpprs": 0.004129023291170597,
                "rhprs": 0.004178411792963743,
                "hgtprs": 0.004066798370331526,
                "absvprs": 0.004205279517918825,
                "pressfc": 0.00025140319485217333,
                "capesfc": 0.00020335726730991155,
                "tmpsfc": 0.00021759155788458884,
                "landmask": 0.00023121641424950212
            }
        },
        {
            "type": "Feature",
            "geometry": {
                "type": "Point",
                "coordinates": [
                    155.0,
                    9.0
                ]
            },
            "properties": {
                "confidence": 0.7494203448295593,
                "confidence_percent": 74.94,
                "cnn_confidence": 0.8709728717803955,
                "vit_confidence": 0.6818512082099915,
                "lead_time_hrs": 48,
                "top_driver": "ugrdprs",
                "ugrdprs": 0.007413310464471579,
                "vgrdprs": 0.006048392038792372,
                "vvelprs": 0.005323302000761032,
                "tmpprs": 0.006172115448862314,
                "rhprs": 0.005880963057279587,
                "hgtprs": 0.004769142251461744,
                "absvprs": 0.006127841304987669,
                "pressfc": 0.0006423996528610587,
                "capesfc": 0.000297077524010092,
                "tmpsfc": 0.0003873514069709927,
                "landmask": 0.00057305081281811
            }
        },
        {
            "type": "Feature",
            "geometry": {
                "type": "Point",
                "coordinates": [
                    139.0,
                    5.0
                ]
            },
            "properties": {
                "confidence": 0.7433996200561523,
                "confidence_percent": 74.34,
                "cnn_confidence": 0.34125232696533203,
                "vit_confidence": 0.8344240188598633,
                "lead_time_hrs": 48,
                "top_driver": "ugrdprs",
                "ugrdprs": 0.004120185039937496,
                "vgrdprs": 0.003968897275626659,
                "vvelprs": 0.0037436438724398613,
                "tmpprs": 0.0038358322344720364,
                "rhprs": 0.003977365791797638,
                "hgtprs": 0.0037720438558608294,
                "absvprs": 0.003948829136788845,
                "pressfc": 0.00021694874158129096,
                "capesfc": 0.0002218493027612567,
                "tmpsfc": 0.0002196287823608145,
                "landmask": 0.00022628491569776088
            }
        },
        {
            "type": "Feature",
            "geometry": {
                "type": "Point",
                "coordinates": [
                    173.0,
                    27.0
                ]
            },
            "properties": {
                "confidence": 0.7432693839073181,
                "confidence_percent": 74.33,
                "cnn_confidence": 0.20159481465816498,
                "vit_confidence": 0.5672140717506409,
                "lead_time_hrs": 48,
                "top_driver": "ugrdprs",
                "ugrdprs": 0.004837180022150278,
                "vgrdprs": 0.0046849362552165985,
                "vvelprs": 0.004628024064004421,
                "tmpprs": 0.0046774353832006454,
                "rhprs": 0.0047348313964903355,
                "hgtprs": 0.00464243721216917,
                "absvprs": 0.004760943353176117,
                "pressfc": 0.0002833789912983775,
                "capesfc": 0.00024126676726154983,
                "tmpsfc": 0.00027045453316532075,
                "landmask": 0.0002454376081004739
            }
        },
        {
            "type": "Feature",
            "geometry": {
                "type": "Point",
                "coordinates": [
                    -104.0,
                    16.0
                ]
            },
            "properties": {
                "confidence": 0.737063467502594,
                "confidence_percent": 73.71,
                "cnn_confidence": 0.38757404685020447,
                "vit_confidence": 0.6835371255874634,
                "lead_time_hrs": 48,
                "top_driver": "ugrdprs",
                "ugrdprs": 0.004121105652302504,
                "vgrdprs": 0.003989223390817642,
                "vvelprs": 0.0035952338948845863,
                "tmpprs": 0.0037810681387782097,
                "rhprs": 0.003976821433752775,
                "hgtprs": 0.0036159788724035025,
                "absvprs": 0.003966891672462225,
                "pressfc": 0.00029944442212581635,
                "capesfc": 0.00019721798889804631,
                "tmpsfc": 0.00023699726443737745,
                "landmask": 0.00022939583868719637
            }
        },
        {
            "type": "Feature",
            "geometry": {
                "type": "Point",
                "coordinates": [
                    -176.0,
                    6.0
                ]
            },
            "properties": {
                "confidence": 0.7302311062812805,
                "confidence_percent": 73.02,
                "cnn_confidence": 0.3052317202091217,
                "vit_confidence": 0.7244126200675964,
                "lead_time_hrs": 48,
                "top_driver": "ugrdprs",
                "ugrdprs": 0.0033848481252789497,
                "vgrdprs": 0.0032759658060967922,
                "vvelprs": 0.002943236380815506,
                "tmpprs": 0.0030516367405653,
                "rhprs": 0.0032303626649081707,
                "hgtprs": 0.00291026895865798,
                "absvprs": 0.003252994501963258,
                "pressfc": 0.00027528006467036903,
                "capesfc": 0.00016413429693784565,
                "tmpsfc": 0.00019689725013449788,
                "landmask": 0.00023696779680904
            }
        },
        {
            "type": "Feature",
            "geometry": {
                "type": "Point",
                "coordinates": [
                    -171.0,
                    15.0
                ]
            },
            "properties": {
                "confidence": 0.7291483879089355,
                "confidence_percent": 72.91,
                "cnn_confidence": 0.2440517693758011,
                "vit_confidence": 0.5766699910163879,
                "lead_time_hrs": 48,
                "top_driver": "ugrdprs",
                "ugrdprs": 0.008381658233702183,
                "vgrdprs": 0.008379746228456497,
                "vvelprs": 0.007021268829703331,
                "tmpprs": 0.00760581623762846,
                "rhprs": 0.008004424162209034,
                "hgtprs": 0.007054218091070652,
                "absvprs": 0.008231591433286667,
                "pressfc": 0.0007521539810113609,
                "capesfc": 0.00039219032623805106,
                "tmpsfc": 0.00045305746607482433,
                "landmask": 0.0005782476509921253
            }
        },
        {
            "type": "Feature",
            "geometry": {
                "type": "Point",
                "coordinates": [
                    136.0,
                    20.0
                ]
            },
            "properties": {
                "confidence": 0.727213978767395,
                "confidence_percent": 72.72,
                "cnn_confidence": 0.37793004512786865,
                "vit_confidence": 0.5926762819290161,
                "lead_time_hrs": 48,
                "top_driver": "ugrdprs",
                "ugrdprs": 0.0071625723503530025,
                "vgrdprs": 0.006354093085974455,
                "vvelprs": 0.0055244239047169685,
                "tmpprs": 0.005973116960376501,
                "rhprs": 0.006518673151731491,
                "hgtprs": 0.005282809026539326,
                "absvprs": 0.006272100377827883,
                "pressfc": 0.0007318845018744469,
                "capesfc": 0.00027846574084833264,
                "tmpsfc": 0.0003786328888963908,
                "landmask": 0.0005554956733249128
            }
        },
        {
            "type": "Feature",
            "geometry": {
                "type": "Point",
                "coordinates": [
                    114.0,
                    13.0
                ]
            },
            "properties": {
                "confidence": 0.7100704908370972,
                "confidence_percent": 71.01,
                "cnn_confidence": 0.37639808654785156,
                "vit_confidence": 0.6828120350837708,
                "lead_time_hrs": 48,
                "top_driver": "ugrdprs",
                "ugrdprs": 0.007407520432025194,
                "vgrdprs": 0.005626249592751265,
                "vvelprs": 0.0051791309379041195,
                "tmpprs": 0.0063090575858950615,
                "rhprs": 0.00587613508105278,
                "hgtprs": 0.005028772633522749,
                "absvprs": 0.005977094639092684,
                "pressfc": 0.0005067472229711711,
                "capesfc": 0.00030468314071185887,
                "tmpsfc": 0.0005105091840960085,
                "landmask": 0.0003995804872829467
            }
        },
        {
            "type": "Feature",
            "geometry": {
                "type": "Point",
                "coordinates": [
                    168.0,
                    26.0
                ]
            },
            "properties": {
                "confidence": 0.6935754418373108,
                "confidence_percent": 69.36,
                "cnn_confidence": 0.29133737087249756,
                "vit_confidence": 0.4870964288711548,
                "lead_time_hrs": 48,
                "top_driver": "ugrdprs",
                "ugrdprs": 0.008628884330391884,
                "vgrdprs": 0.007553246803581715,
                "vvelprs": 0.006602132692933083,
                "tmpprs": 0.007339393720030785,
                "rhprs": 0.007376214489340782,
                "hgtprs": 0.005924613680690527,
                "absvprs": 0.007909095846116543,
                "pressfc": 0.0009174986043944955,
                "capesfc": 0.0003382540598977357,
                "tmpsfc": 0.0004690605856012553,
                "landmask": 0.0006522645708173513
            }
        },
        {
            "type": "Feature",
            "geometry": {
                "type": "Point",
                "coordinates": [
                    -86.0,
                    10.0
                ]
            },
            "properties": {
                "confidence": 0.6663615703582764,
                "confidence_percent": 66.64,
                "cnn_confidence": 0.5196804404258728,
                "vit_confidence": 0.5480684638023376,
                "lead_time_hrs": 48,
                "top_driver": "absvprs",
                "ugrdprs": 0.007279297802597284,
                "vgrdprs": 0.006731807719916105,
                "vvelprs": 0.005753105506300926,
                "tmpprs": 0.006183738820254803,
                "rhprs": 0.0064316075295209885,
                "hgtprs": 0.005583916790783405,
                "absvprs": 0.00740429200232029,
                "pressfc": 0.0006719793891534209,
                "capesfc": 0.0003109870303887874,
                "tmpsfc": 0.0004064411041326821,
                "landmask": 0.0005129415076225996
            }
        },
        {
            "type": "Feature",
            "geometry": {
                "type": "Point",
                "coordinates": [
                    -47.0,
                    35.0
                ]
            },
            "properties": {
                "confidence": 0.6648719310760498,
                "confidence_percent": 66.49,
                "cnn_confidence": 0.4780956506729126,
                "vit_confidence": 0.5061078667640686,
                "lead_time_hrs": 48,
                "top_driver": "vgrdprs",
                "ugrdprs": 0.009603682905435562,
                "vgrdprs": 0.010362922213971615,
                "vvelprs": 0.00876531470566988,
                "tmpprs": 0.008361943066120148,
                "rhprs": 0.008988810703158379,
                "hgtprs": 0.008414724841713905,
                "absvprs": 0.008959328755736351,
                "pressfc": 0.000568798219319433,
                "capesfc": 0.0005999351851642132,
                "tmpsfc": 0.0005485554574988782,
                "landmask": 0.00046250541345216334
            }
        },
        {
            "type": "Feature",
            "geometry": {
                "type": "Point",
                "coordinates": [
                    69.0,
                    24.0
                ]
            },
            "properties": {
                "confidence": 0.6489477753639221,
                "confidence_percent": 64.89,
                "cnn_confidence": 0.9872595071792603,
                "vit_confidence": 0.5211989283561707,
                "lead_time_hrs": 48,
                "top_driver": "ugrdprs",
                "ugrdprs": 0.00473551731556654,
                "vgrdprs": 0.003935919143259525,
                "vvelprs": 0.003781834850087762,
                "tmpprs": 0.004077103920280933,
                "rhprs": 0.004493467044085264,
                "hgtprs": 0.0037897019647061825,
                "absvprs": 0.004066004883497953,
                "pressfc": 0.0004952212329953909,
                "capesfc": 0.00019594331388361752,
                "tmpsfc": 0.0002438109804643318,
                "landmask": 0.00024349849263671786
            }
        },
        {
            "type": "Feature",
            "geometry": {
                "type": "Point",
                "coordinates": [
                    159.0,
                    14.0
                ]
            },
            "properties": {
                "confidence": 0.6473124027252197,
                "confidence_percent": 64.73,
                "cnn_confidence": 0.3812607228755951,
                "vit_confidence": 0.29148930311203003,
                "lead_time_hrs": 48,
                "top_driver": "ugrdprs",
                "ugrdprs": 0.010792230255901814,
                "vgrdprs": 0.009114429354667664,
                "vvelprs": 0.0086698392406106,
                "tmpprs": 0.009436489082872868,
                "rhprs": 0.009908928535878658,
                "hgtprs": 0.007532497402280569,
                "absvprs": 0.009519960731267929,
                "pressfc": 0.001094361417926848,
                "capesfc": 0.00041952505125664175,
                "tmpsfc": 0.0005759756313636899,
                "landmask": 0.0007990087615326047
            }
        },
        {
            "type": "Feature",
            "geometry": {
                "type": "Point",
                "coordinates": [
                    -87.0,
                    16.0
                ]
            },
            "properties": {
                "confidence": 0.632362961769104,
                "confidence_percent": 63.24,
                "cnn_confidence": 0.4321203827857971,
                "vit_confidence": 0.37039434909820557,
                "lead_time_hrs": 48,
                "top_driver": "vgrdprs",
                "ugrdprs": 0.010820304974913597,
                "vgrdprs": 0.010851294733583927,
                "vvelprs": 0.007600825745612383,
                "tmpprs": 0.008939765393733978,
                "rhprs": 0.009507871232926846,
                "hgtprs": 0.0075944773852825165,
                "absvprs": 0.010091839358210564,
                "pressfc": 0.0013832414988428354,
                "capesfc": 0.00044468091800808907,
                "tmpsfc": 0.0005374064203351736,
                "landmask": 0.0009736936190165579
            }
        },
        {
            "type": "Feature",
            "geometry": {
                "type": "Point",
                "coordinates": [
                    149.0,
                    11.0
                ]
            },
            "properties": {
                "confidence": 0.6238822937011719,
                "confidence_percent": 62.39,
                "cnn_confidence": 0.3293190598487854,
                "vit_confidence": 0.4776340126991272,
                "lead_time_hrs": 48,
                "top_driver": "ugrdprs",
                "ugrdprs": 0.011053454130887985,
                "vgrdprs": 0.010416918434202671,
                "vvelprs": 0.010081535205245018,
                "tmpprs": 0.010466509498655796,
                "rhprs": 0.010414844378829002,
                "hgtprs": 0.010097200982272625,
                "absvprs": 0.010705732740461826,
                "pressfc": 0.0007297947886399925,
                "capesfc": 0.0005022534751333296,
                "tmpsfc": 0.0006130670080892742,
                "landmask": 0.0006322656408883631
            }
        },
        {
            "type": "Feature",
            "geometry": {
                "type": "Point",
                "coordinates": [
                    135.0,
                    9.0
                ]
            },
            "properties": {
                "confidence": 0.5205965638160706,
                "confidence_percent": 52.06,
                "cnn_confidence": 0.38831883668899536,
                "vit_confidence": 0.4490370750427246,
                "lead_time_hrs": 48,
                "top_driver": "ugrdprs",
                "ugrdprs": 0.014592469669878483,
                "vgrdprs": 0.013654878363013268,
                "vvelprs": 0.012506354600191116,
                "tmpprs": 0.012849880382418633,
                "rhprs": 0.01364374253898859,
                "hgtprs": 0.01193098071962595,
                "absvprs": 0.013983376324176788,
                "pressfc": 0.0012843197910115123,
                "capesfc": 0.0006869335193186998,
                "tmpsfc": 0.0008728505345061421,
                "landmask": 0.0009552475530654192
            }
        }
    ]
}