{
    "type": "FeatureCollection",
    "features": [
        {
            "type": "Feature",
            "geometry": {
                "type": "Point",
                "coordinates": [
                    294.0,
                    26.0
                ]
            },
            "properties": {
                "confidence": 0.4643250647042908,
                "lead_time_hrs": 24,
                "top_driver": "vvelprs",
                "ugrdprs": 0.005430243909358978,
                "vgrdprs": 0.005546137224882841,
                "vvelprs": 0.0055557903833687305,
                "tmpprs": 0.005287643056362867,
                "rhprs": 0.005097005050629377,
                "hgtprs": 0.005328258965164423,
                "absvprs": 0.00500623881816864,
                "pressfc": 0.00037054260610602796,
                "capesfc": 0.00028549457783810794,
                "tmpsfc": 0.000285239249933511,
                "landmask": 0.00030316051561385393
            }
        },
        {
            "type": "Feature",
            "geometry": {
                "type": "Point",
                "coordinates": [
                    270.0,
                    28.0
                ]
            },
            "properties": {
                "confidence": 0.4417070230744513,
                "lead_time_hrs": 24,
                "top_driver": "ugrdprs",
                "ugrdprs": 0.005756448954343796,
                "vgrdprs": 0.005182922817766666,
                "vvelprs": 0.005659159272909164,
                "tmpprs": 0.005336481612175703,
                "rhprs": 0.0054077100940048695,
                "hgtprs": 0.005393811967223883,
                "absvprs": 0.005261548329144716,
                "pressfc": 0.0003796710225287825,
                "capesfc": 0.0002836907806340605,
                "tmpsfc": 0.0003145601076539606,
                "landmask": 0.0003402486618142575
            }
        },
        {
            "type": "Feature",
            "geometry": {
                "type": "Point",
                "coordinates": [
                    12.0,
                    36.0
                ]
            },
            "properties": {
                "confidence": 0.3906533880104266,
                "lead_time_hrs": 24,
                "top_driver": "ugrdprs",
                "ugrdprs": 0.019063280895352364,
                "vgrdprs": 0.018124395981431007,
                "vvelprs": 0.01791982725262642,
                "tmpprs": 0.01635676994919777,
                "rhprs": 0.01796252653002739,
                "hgtprs": 0.017698531970381737,
                "absvprs": 0.017714528366923332,
                "pressfc": 0.0013654133072122931,
                "capesfc": 0.001029524253681302,
                "tmpsfc": 0.0008965113665908575,
                "landmask": 0.001256107701919973
            }
        }
    ]
}